X,Y,identifiant,nom_etablissement,numero_siret,adresse,code_postal,commune,latitude,longitude,code_epsg,code_ape,libelle_ape,code_eprtr,libelle_eprtr,Emission,PDND,TDND,PDD,TDD,icon_url
2.28209664110933,48.9431801215329,"7406832",YPREMA,"3,50E+13","7, route du mÃ´le Central","92230",GENNEVILLIERS,"48.94318012153292","2.2820966411093284","4326.0",0812Z,"Exploitation de graviÃ¨res et sabliÃ¨res, extraction d'argiles et de kaolin",,,[],[],"[['R13', '17 05 04', 75300.0], ['R5 ', '17 01 01', 72900.0], ['R5 ', '17 03 02', 61800.0]]","[['D8 ', '13 05 07*', 3.0]]",[],./0.png
2.17720910946292,48.8981607052111,"7405059",PANZANI,"9,62E+13",29 A 31 RUE LAVOISIER,"92000",NANTERRE,"48.8981607052111","2.177209109462918","2154.0",1073Z,Fabrication de pÃ¢tes alimentaires,8.(b).(ii),matiÃ¨res premiÃ¨res vÃ©gÃ©tales d'une capacitÃ© de production de produits finis de 300 tonnes par jour (valeur moyenne sur une base trimestrielle),[],[],[],"[['D13', '12 03 01*', 0.24], ['R12', '13 02 05*', 6.36], ['R12', '15 01 10*', 0.15], ['R12', '15 02 02*', 0.0], ['R12', '16 01 07*', 0.3], ['R12', '16 02 11*', 0.0], ['R12', '16 05 04*', 0.0], ['R12', '16 06 01*', 0.06], ['R12', '20 01 33*', 0.075], ['R12', '20 01 35*', 0.505]]",[],./0.png
2.30926422991557,48.9277640387213,"7408360",CAFÃS RICHARD,"4,33E+13",106 RUE DES FOSSES BLANCS,"92230",GENNEVILLIERS,"48.927764038721335","2.309264229915573","2154.0",1083Z,Transformation du thÃ© et du cafÃ©,,,[],[],[],"[['R1 ', '15 02 02*', 0.12], ['R1 ', '16 01 07*', 0.03], ['R1 ', '16 03 05*', 0.03], ['R4 ', '16 05 04*', 0.01], ['R5 ', '13 05 07*', 11.8], ['R9 ', '13 02 05*', 0.37]]",[],./0.png
2.20973566030399,48.9192170753594,"6505516",TENCATE GEOSYNTHETICS FRANCE,"3,54E+13","9, rue Marcel Paul, BP 80","95870",BEZONS,"48.91921707535945","2.209735660303989","2154.0",1395Z,"Fabrication de non-tissÃ©s, sauf habillement",,,[],[],[],"[['D10', '12 03 01*', 0.12], ['D10', '13 05 07*', 1.14], ['R1 ', '08 03 12*', 0.152], ['R1 ', '15 01 10*', 0.193], ['R1 ', '15 02 02*', 0.166], ['R1 ', '17 04 09*', 0.826], ['R12', '15 01 10*', 0.016], ['R12', '15 02 02*', 0.068], ['R12', '16 07 08*', 0.24], ['R13', '16 02 13*', 0.414], ['R13', '17 04 09*', 0.743], ['R3 ', '15 01 10*', 0.368], ['R4 ', '16 02 13*', 1.822], ['R4 ', '16 05 04*', 0.141], ['R9 ', '13 02 05*', 2.855]]",[],./0.png
2.2860591364091,48.9130952579171,"6517183",SociÃ©tÃ© des ateliers Louis Vuitton,"7,22E+13",17 rue de la ComÃ¨te,"92600",ASNIERES-SUR-SEINE,"48.913095257917085","2.2860591364091","2154.0",1512Z,"Fabrication d'articles de voyage, de maroquinerie et de sellerie",,,[],[],[],"[['D3 ', '12 03 01*', 21.6], ['R1 ', '08 03 12*', 0.573], ['R1 ', '15 02 02*', 3.51], ['R1 ', '18 01 03*', 0.003], ['R12', '16 06 03*', 0.006]]",[],./0.png
2.31105436389417,48.9461468207449,"6506294",PMC ISOCHEM,"8,34E+13",4 AV PHILIPPE LEBON,"92230",GENNEVILLIERS,"48.94614682074488","2.311054363894172","2154.0",2014Z,Fabrication d'autres produits chimiques organiques de base,4.(e),Installations utilisant un procÃ©dÃ© chimique ou biologique pour la fabrication industrielle de produits pharmaceutiques de base,"[['Air', 'Chloroforme (trichlorométhane)', 873.0, 'kg/an'], ['Air', 'Dichlorométhane (DCM, chlorure de méthylène)', 1800.0, 'kg/an'], ['Eau (indirect)', 'Chloroforme (trichlorométhane)', 11.5, 'kg/an']]",[],[],"[['D10', '07 01 04*', 6.44], ['D10', '07 07 01*', 24.3], ['D10', '07 07 01*', 49.1], ['D10', '07 07 01*', 1190.0], ['D10', '07 07 10*', 9.9], ['D13', '15 02 02*', 0.523], ['D13', '16 05 06*', 1.81], ['D13', '16 05 08*', 3.09], ['D13', '16 05 08*', 0.382], ['D9 ', '06 01 02*', 44.0], ['D9 ', '07 07 01*', 611.0], ['R1 ', '07 07 01*', 226.0], ['R1 ', '07 07 03*', 154.0], ['R1 ', '07 07 04*', 769.0], ['R1 ', '15 01 10*', 11.4], ['R1 ', '15 01 10*', 20.7], ['R1 ', '16 03 05*', 3.63], ['R12', '15 01 10*', 2.12], ['R13', '15 01 10*', 0.5], ['R13', '15 02 02*', 31.9], ['R13', '16 05 08*', 0.41], ['R2 ', '07 07 04*', 71.0], ['R2 ', '07 07 04*', 35.7], ['R3 ', '15 01 10*', 3.02], ['R5 ', '06 01 02*', 9.5], ['R5 ', '07 01 01*', 125.0], ['R5 ', '07 01 01*', 1070.0], ['R5 ', '07 05 03*', 553.0]]",[],./0.png
2.32244736743971,48.9341163681747,"6506327",PCAS,"6,22E+13",35 AV JEAN JAURES,"92390",VILLENEUVE-LA-GARENNE,"48.9341163681747","2.322447367439709","2154.0",2110Z,Fabrication de produits pharmaceutiques de base,4.(e),Installations utilisant un procÃ©dÃ© chimique ou biologique pour la fabrication industrielle de produits pharmaceutiques de base,"[['Eau (indirect)', 'Méthanol (alcool méthylique)', 21400.0, 'kg/an']]",[],[],"[['D10', '07 05 01*', 53.9], ['D10', '07 07 01*', 14.9], ['D10', '07 07 04*', 147.0], ['D10', '07 07 04*', 2450.0], ['D10', '07 07 04*', 35.4], ['D10', '15 01 10*', 0.67], ['D13', '06 01 02*', 2.22], ['D13', '06 01 06*', 0.193], ['D13', '06 02 05*', 0.01], ['D13', '06 04 04*', 0.01], ['D13', '06 04 05*', 0.02], ['D13', '07 05 13*', 2.58], ['D13', '15 01 10*', 0.05], ['D13', '16 03 03*', 0.55], ['D13', '16 03 05*', 0.31], ['D13', '16 05 06*', 4.64], ['R1 ', '07 07 03*', 1270.0], ['R1 ', '07 07 04*', 24.0], ['R1 ', '15 02 02*', 17.4], ['R12', '15 01 10*', 0.98], ['R13', '07 05 03*', 0.73], ['R13', '07 07 04*', 16.7], ['R13', '07 07 04*', 0.65], ['R13', '15 01 10*', 1.82], ['R13', '16 02 13*', 0.51], ['R13', '16 05 04*', 0.03], ['R13', '19 08 13*', 14.6], ['R2 ', '07 07 04*', 738.0], ['R2 ', '07 07 04*', 67.5], ['R3 ', '15 01 10*', 328.0], ['R5 ', '07 07 01*', 15.4]]",[],./0.png
2.29674867121439,48.9287973797055,"6506284",MERSEN FRANCE GENNEVILLIERS,"4,34E+13",41 AV JEAN JAURES,"92230",GENNEVILLIERS,"48.92879737970551","2.2967486712143894","2154.0",2399Z,Fabrication d'autres produits minÃ©raux non mÃ©talliques n.c.a.,9.(d),Installations destinÃ©es Ã  la fabrication de carbone (charbon dur) ou d'Ã©lectrographite par combustion ou graphitisation,"[['Air', 'Dioxines et furanes (PCDD + PCDF) (exprimés en iTeq)', 0.005, 'kg/an']]",[],[],"[['D13', '12 03 01*', 1.08], ['R1 ', '18 01 03*', 0.03], ['R12', '06 08 02*', 0.23], ['R12', '14 06 03*', 0.0], ['R13', '13 02 08*', 2.8], ['R13', '15 01 10*', 0.37], ['R13', '15 02 02*', 6.05], ['R13', '16 05 04*', 0.15], ['R5 ', '20 01 21*', 0.0]]",[],./0.png
2.1760850418945,48.8924781526252,"7405094",SPECITUBES,"6,52E+13",13 RUE DU PORT,"92000",NANTERRE,"48.892478152625216","2.176085041894501","2154.0",2420Z,"Fabrication de tubes, tuyaux, profilÃ©s creux et accessoires correspondants en acier",,,[],[],[],"[['R1 ', '12 01 06*', 6.61], ['R1 ', '15 01 10*', 1.357], ['R5 ', '15 01 10*', 0.87], ['R5 ', '16 05 07*', 30.0]]",[],./0.png
2.30703916241727,48.9298465528332,"7404581",HOWMET SAS,"5,62E+13",68 RUE DU MOULIN DE CAGE,"92230",GENNEVILLIERS,"48.92984655283325","2.3070391624172704","2154.0",2452Z,Fonderie d'acier,,,[],[],[],"[['D13', '12 03 01*', 0.06], ['D13', '16 05 06*', 0.059], ['D5 ', '10 10 05*', 189.0], ['D5 ', '10 10 07*', 342.0], ['D5 ', '12 01 16*', 74.0], ['D5 ', '16 03 03*', 16.9], ['D9 ', '11 01 07*', 88.6], ['D9 ', '16 10 01*', 137.0], ['D9 ', '19 02 04*', 10.4], ['R1 ', '18 01 03*', 0.004], ['R12', '08 01 11*', 0.044], ['R12', '11 01 05*', 0.728], ['R12', '11 01 09*', 0.994], ['R12', '11 01 98*', 0.123], ['R12', '12 01 09*', 0.146], ['R12', '12 01 18*', 1.32], ['R12', '15 01 10*', 23.8], ['R12', '15 02 02*', 12.8], ['R12', '20 01 21*', 0.121], ['R13', '13 01 10*', 1.53], ['R5 ', '11 01 11*', 139.0], ['R5 ', '13 05 07*', 1.7]]",[],./0.png
2.21347555034155,48.9200600605809,"6505518",SDPM DECORAT. PROTECT. METAUX,"3,00E+13",33 rue louis Rameau,"95870",BEZONS,"48.92006006058086","2.213475550341554","2154.0",2561Z,Traitement et revÃªtement des mÃ©taux,2.(f),Installations de traitement de surface de mÃ©taux et des matiÃ¨res plastiques utilisant un procÃ©dÃ© Ã©lectrolytique ou chimique lorsque le volume des cuves affectÃ©es au traitement est Ã©gal Ã  30 m3,[],[],[],"[['D10', '11 01 07*', 0.539], ['D10', '11 01 15*', 51.9], ['D10', '11 01 98*', 29.8], ['D10', '19 02 04*', 53.0], ['D9 ', '11 01 05*', 4.35], ['D9 ', '11 01 09*', 0.571], ['D9 ', '11 01 11*', 22.0], ['D9 ', '11 01 15*', 20.1], ['D9 ', '11 01 98*', 14.4], ['D9 ', '19 02 04*', 27.2], ['R1 ', '15 01 10*', 0.781], ['R12', '15 01 10*', 0.044], ['R12', '15 01 11*', 0.068]]",[],./0.png
2.18451532377871,48.8958724050524,"7405746",LRB ROULIER,"7,00E+13",33 RUE DES AGGLOMERES,"92000",NANTERRE,"48.89587240505237","2.184515323778713","4326.0",2561Z,Traitement et revÃªtement des mÃ©taux,2.(f),Installations de traitement de surface de mÃ©taux et des matiÃ¨res plastiques utilisant un procÃ©dÃ© Ã©lectrolytique ou chimique lorsque le volume des cuves affectÃ©es au traitement est Ã©gal Ã  30 m3,[],[],[],"[['D10', '11 01 13*', 7.44], ['D10', '15 01 10*', 0.162], ['D5 ', '11 01 09*', 13.8], ['D9 ', '11 01 05*', 19.0], ['D9 ', '16 03 03*', 5.28]]",[],./0.png
2.31246874646608,48.9228093455003,"6506290",SOC PHOSALU REVETEMEN METAUX,"5,62E+13","202 RUE DES CABOEUFS, BP 50","92230",GENNEVILLIERS,"48.92280934550026","2.3124687464660827","2154.0",2561Z,Traitement et revÃªtement des mÃ©taux,2.(f),Installations de traitement de surface de mÃ©taux et des matiÃ¨res plastiques utilisant un procÃ©dÃ© Ã©lectrolytique ou chimique lorsque le volume des cuves affectÃ©es au traitement est Ã©gal Ã  30 m3,[],[],[],"[['D9 ', '06 01 06*', 2.0], ['D9 ', '16 03 05*', 1.0], ['D9 ', '16 09 02*', 0.8]]",[],./0.png
2.32269824361459,48.9326699277929,"6506328",GALVANOPLAST / SOCORFI,"8,29E+13",23 AVENUE DU CHEMIN DES RENIERS,"92390",VILLENEUVE-LA-GARENNE,"48.93266992779285","2.3226982436145924","2154.0",2561Z,Traitement et revÃªtement des mÃ©taux,2.(f),Installations de traitement de surface de mÃ©taux et des matiÃ¨res plastiques utilisant un procÃ©dÃ© Ã©lectrolytique ou chimique lorsque le volume des cuves affectÃ©es au traitement est Ã©gal Ã  30 m3,"[['Eau (indirect)', 'Nickel et composés (exprimés en tant que Ni)', 40.3, 'kg/an']]",[],[],"[['D10', '11 02 07*', 25.7], ['D13', '06 01 06*', 0.919], ['D13', '06 02 05*', 2.44], ['D13', '11 01 08*', 0.658], ['D13', '13 07 01*', 0.259], ['D13', '15 01 10*', 2.34], ['D5 ', '11 01 09*', 42.5], ['D5 ', '15 01 10*', 0.88], ['D9 ', '11 01 09*', 22.4], ['R12', '11 01 09*', 12.2], ['R13', '15 02 02*', 0.388]]",[],./0.png
2.31211675407142,48.92982184865,"7404600",DECAP ILE DE FRANCE,"3,84E+13",8 RUE THOMAS EDISON,"92230",GENNEVILLIERS,"48.92982184864998","2.3121167540714227","4326.0",2561Z,Traitement et revÃªtement des mÃ©taux,,,[],[],[],"[['D10', '12 01 14*', 12.0], ['D10', '12 01 14*', 48.04], ['R13', '12 01 14*', 2.54]]",[],./0.png
2.2285284753676,48.9282606997531,"6505519",PROTEC INDUSTRIE,"6,52E+13",208/210 RUE MICHEL CARRE,"95870",BEZONS,"48.92826069975309","2.2285284753676","2154.0",2561Z,Traitement et revÃªtement des mÃ©taux,2.(f),Installations de traitement de surface de mÃ©taux et des matiÃ¨res plastiques utilisant un procÃ©dÃ© Ã©lectrolytique ou chimique lorsque le volume des cuves affectÃ©es au traitement est Ã©gal Ã  30 m3,[],[],[],"[['D10', '06 03 11*', 140.0], ['D13', '12 03 01*', 0.12], ['D13', '14 06 03*', 2.0], ['D13', '15 01 10*', 0.75], ['D13', '15 02 02*', 0.365], ['D13', '16 05 06*', 0.174], ['D13', '16 09 01*', 1.5], ['D5 ', '17 06 05*', 3.11], ['R13', '08 01 11*', 1.55], ['R13', '11 01 09*', 1.97], ['R13', '15 01 10*', 0.604], ['R13', '20 01 13*', 0.12], ['R4 ', '11 01 98*', 0.35]]",[],./0.png
2.21193918906579,48.9214888661755,"6513135",RIBER,"3,43E+13","31 RUE CASIMIR PERIER, BP 70083","95870",BEZONS,"48.92148886617552","2.2119391890657933","2154.0",2651B,Fabrication d'instrumentation scientifique et technique,9.(c),"Installations destinÃ©es au traitement de surface de matiÃ¨res, d'objets ou de produits Ã  l'aide de solvants organiques, notamment pour les opÃ©rations d'apprÃªt, d'impression, de revÃªtement, de dÃ©graissage, d'impermÃ©abilisation, de collage, de peinture, de nettoyage ou d'imprÃ©gnation d'une capacitÃ© de consommation de 150 kg par heures ou 200 tonnes par an",[],[],[],"[['D5 ', '06 01 05*', 4.14], ['D5 ', '06 01 06*', 13.9], ['D5 ', '06 02 05*', 4.18], ['D5 ', '06 04 03*', 0.154], ['D5 ', '06 13 02*', 0.801], ['D5 ', '10 01 09*', 0.166], ['D5 ', '11 01 16*', 2.03], ['D5 ', '12 01 10*', 0.135], ['D5 ', '15 01 10*', 0.06], ['D5 ', '15 02 02*', 0.069]]",[],./0.png
2.22639665194371,48.9330312500203,"6505421",DASSAULT AVIATION,"7,12E+13","1, avenue du Parc, BP 50","95100",ARGENTEUIL,"48.93303125002026","2.2263966519437117","2154.0",3030Z,Construction aÃ©ronautique et spatiale,2.(f),Installations de traitement de surface de mÃ©taux et des matiÃ¨res plastiques utilisant un procÃ©dÃ© Ã©lectrolytique ou chimique lorsque le volume des cuves affectÃ©es au traitement est Ã©gal Ã  30 m3,[],[],[],"[['D10', '08 01 15*', 9.6], ['D10', '09 01 04*', 0.818], ['D12', '12 03 01*', 0.1], ['D13', '12 03 01*', 0.3], ['D9 ', '06 01 06*', 34.0], ['R1 ', '08 01 11*', 3.28], ['R1 ', '13 01 10*', 3.92], ['R1 ', '14 06 03*', 0.495], ['R1 ', '15 02 02*', 37.8], ['R1 ', '16 03 05*', 0.576], ['R1 ', '16 05 08*', 0.859], ['R1 ', '18 01 03*', 0.294], ['R12', '20 01 21*', 0.118], ['R4 ', '16 02 13*', 1.06], ['R4 ', '20 01 33*', 0.579], ['R5 ', '08 01 15*', 17.2], ['R5 ', '12 03 01*', 84.0], ['R5 ', '13 05 08*', 2.8]]",[],./0.png
2.24882362660778,48.9348645986314,"7402282",SAFRAN TRANSMISSION SYSTEMS,"6,92E+13",18 BOULEVARD LOUIS SEGUIN,"92700",COLOMBES,"48.93486459863145","2.248823626607781","2154.0",3030Z,Construction aÃ©ronautique et spatiale,2.(f),Installations de traitement de surface de mÃ©taux et des matiÃ¨res plastiques utilisant un procÃ©dÃ© Ã©lectrolytique ou chimique lorsque le volume des cuves affectÃ©es au traitement est Ã©gal Ã  30 m3,"[['Air', 'Tétrachloroéthylène (PER, tétrachloroéthylène)', 3560.0, 'kg/an']]",[],[],"[['D10', '06 02 05*', 29.8], ['D10', '06 03 11*', 26.9], ['D10', '11 01 05*', 22.8], ['D12', '15 02 02*', 0.268], ['D13', '11 01 98*', 0.973], ['D13', '12 01 09*', 0.228], ['D13', '12 01 16*', 2.34], ['D13', '12 03 01*', 4.16], ['D13', '14 06 03*', 0.311], ['D13', '15 01 10*', 0.313], ['D13', '15 02 02*', 0.223], ['D13', '16 03 05*', 0.877], ['D13', '20 01 33*', 0.039], ['D9 ', '06 01 06*', 25.1], ['D9 ', '06 13 02*', 4.06], ['D9 ', '11 01 05*', 50.9], ['D9 ', '11 01 16*', 8.83], ['D9 ', '12 01 07*', 1.38], ['R1 ', '15 02 02*', 24.1], ['R1 ', '18 01 03*', 0.03], ['R12', '07 07 04*', 2.87], ['R12', '08 03 17*', 0.098], ['R12', '09 01 01*', 0.276], ['R12', '09 01 04*', 0.218], ['R12', '12 01 07*', 7.45], ['R12', '12 01 14*', 2.61], ['R12', '12 01 16*', 0.651], ['R12', '12 01 20*', 0.444], ['R12', '12 03 01*', 1.13], ['R12', '14 06 03*', 12.8], ['R12', '15 01 10*', 6.69], ['R12', '15 02 02*', 0.37], ['R12', '16 01 14*', 1.6], ['R12', '16 02 13*', 1.07], ['R12', '16 03 05*', 1.3], ['R12', '16 05 04*', 0.12], ['R12', '20 01 21*', 0.436], ['R13', '12 01 07*', 3.46], ['R13', '14 06 02*', 1.34], ['R13', '14 06 03*', 3.29], ['R5 ', '06 01 06*', 3.26], ['R5 ', '12 01 09*', 242.0], ['R5 ', '12 03 01*', 493.0], ['R5 ', '14 06 03*', 32.9], ['R7 ', '11 01 16*', 0.4]]",[],./0.png
2.30088711239789,48.9184166793863,"7402239",SECAN,"5,42E+13",23 RUE DU 19 MARS 1962,"92230",GENNEVILLIERS,"48.91841667938635","2.300887112397892","4326.0",3030Z,Construction aÃ©ronautique et spatiale,,,[],[],[],"[['D13', '12 03 01*', 1.2], ['D13', '16 10 01*', 0.2], ['D13', '20 01 13*', 0.96], ['D9 ', '06 01 05*', 25.5], ['D9 ', '06 02 01*', 0.065], ['D9 ', '11 01 98*', 20.7], ['D9 ', '11 03 02*', 4.66], ['D9 ', '16 03 03*', 2.33], ['R1 ', '11 02 07*', 0.273], ['R1 ', '13 01 10*', 3.77], ['R1 ', '13 07 03*', 3.44], ['R1 ', '13 08 99*', 0.416], ['R1 ', '14 06 03*', 3.44], ['R1 ', '15 01 10*', 0.229], ['R1 ', '15 02 02*', 0.301], ['R1 ', '16 03 05*', 0.134], ['R1 ', '18 01 03*', 0.01], ['R1 ', '19 02 05*', 18.4], ['R12', '16 02 13*', 0.197]]",[],./0.png
2.25539898878243,48.937045954166,"6506277",SAFRAN AIRCRAFT ENGINES,"4,15E+13",171 BOULEVARD DE VALMY,"92700",COLOMBES,"48.93704595416595","2.2553989887824337","2154.0",3030Z,Construction aÃ©ronautique et spatiale,2.(f),Installations de traitement de surface de mÃ©taux et des matiÃ¨res plastiques utilisant un procÃ©dÃ© Ã©lectrolytique ou chimique lorsque le volume des cuves affectÃ©es au traitement est Ã©gal Ã  30 m3,[],[],[],"[['D10', '07 06 08*', 0.36], ['D10', '12 01 19*', 50.7], ['D10', '16 03 05*', 24.9], ['D13', '08 01 11*', 4.36], ['D13', '12 03 01*', 1.4], ['D15', '17 06 01*', 0.2], ['D5 ', '10 10 13*', 12.7], ['D5 ', '11 01 09*', 14.6], ['D5 ', '12 01 19*', 3.0], ['D5 ', '15 02 02*', 0.003], ['D5 ', '17 02 04*', 1.03], ['D5 ', '17 04 09*', 18.5], ['D5 ', '17 04 09*', 0.237], ['D5 ', '17 06 01*', 0.307], ['D9 ', '06 01 06*', 15.3], ['D9 ', '11 01 98*', 13.3], ['R1 ', '11 03 02*', 2.48], ['R1 ', '15 02 02*', 99.4], ['R1 ', '18 01 03*', 0.003], ['R1 ', '18 01 03*', 0.013], ['R12', '08 01 11*', 0.359], ['R12', '11 03 02*', 3.42], ['R12', '12 01 16*', 1.29], ['R12', '14 06 01*', 0.005], ['R12', '15 01 10*', 1.6], ['R12', '15 01 10*', 1.87], ['R12', '16 02 13*', 3.81], ['R12', '16 05 04*', 0.726], ['R12', '16 06 03*', 0.341], ['R12', '16 07 08*', 4.78], ['R13', '08 01 11*', 1.08], ['R3 ', '12 01 19*', 36.4], ['R4 ', '15 01 10*', 10.3], ['R4 ', '16 02 13*', 1.67], ['R4 ', '20 01 35*', 0.192], ['R5 ', '12 01 19*', 898.0], ['R5 ', '13 05 02*', 39.8]]",[],./0.png
2.25990006908608,48.9372986562633,"6506282",EDF,"5,52E+13",212 avenue d'Argenteuil,"92230",GENNEVILLIERS,"48.937298656263295","2.2599000690860835","2154.0",3511Z,Production d'Ã©lectricitÃ©,1.(c),Centrales thermiques et autres installations de combustion avec un apport thermiques de 50 MW,"[['Air', ""Dioxyde de carbone (CO2) d'origine non biomasse"", 31300000.0, 'kg/an'], ['Air', ""Dioxyde de carbone (CO2) total (d'origine biomasse et non biomasse)"", 31300000.0, 'kg/an']]",[],[],[],[],./0.png
2.28907149186261,48.93528995832,"6506295",ENGIE RESEAUX,"6,22E+13",15 RUE PAUL VERLAINE,"92230",GENNEVILLIERS,"48.93528995831997","2.2890714918626056","2154.0",3511Z,Production d'Ã©lectricitÃ©,1.(c),Centrales thermiques et autres installations de combustion avec un apport thermiques de 50 MW,"[['Air', ""Dioxyde de carbone (CO2) d'origine non biomasse"", 10700000.0, 'kg/an'], ['Air', ""Dioxyde de carbone (CO2) total (d'origine biomasse et non biomasse)"", 10700000.0, 'kg/an']]",[],[],[],[],./0.png
2.23301577279561,48.8979105726938,"6506270",IDEX,"4,39E+13",2 RUE D'ALENCON,"92400",COURBEVOIE,"48.89791057269377","2.2330157727956093","2154.0",3530Z,Production et distribution de vapeur et d'air conditionnÃ©,1.(c),Centrales thermiques et autres installations de combustion avec un apport thermiques de 50 MW,"[['Air', ""Dioxyde de carbone (CO2) total (d'origine biomasse et non biomasse)"", 20200000.0, 'kg/an'], ['Air', ""Dioxyde de carbone (CO2) d'origine biomasse"", 20200000.0, 'kg/an']]",[],[],"[['D13', '12 01 09*', 1.56], ['D15', '15 02 02*', 0.4], ['D5 ', '08 04 09*', 0.3], ['D5 ', '17 06 01*', 0.6], ['D5 ', '17 06 05*', 2.0], ['D9 ', '16 02 13*', 1.7], ['D9 ', '19 01 07*', 47.2], ['R12', '13 02 05*', 0.876], ['R12', '15 01 10*', 0.515], ['R12', '16 01 07*', 0.194], ['R12', '16 02 11*', 0.16], ['R12', '16 02 13*', 0.69], ['R12', '16 06 01*', 0.104], ['R13', '07 01 01*', 17.7], ['R13', '16 07 08*', 8.0], ['R5 ', '20 01 33*', 0.004]]",[],./0.png
2.22632189334765,48.9059344797273,"7403734",IDEX,"4,39E+13",11 A 21 RUE NOEL PONS,"92000",NANTERRE,"48.90593447972729","2.226321893347653","2154.0",3530Z,Production et distribution de vapeur et d'air conditionnÃ©,1.(c),Centrales thermiques et autres installations de combustion avec un apport thermiques de 50 MW,"[['Air', ""Dioxyde de carbone (CO2) d'origine non biomasse"", 32800000.0, 'kg/an'], ['Air', ""Dioxyde de carbone (CO2) total (d'origine biomasse et non biomasse)"", 42100000.0, 'kg/an']]",[],[],[],[],./0.png
2.23003063822507,48.8719454413442,"6506325",SOCLIS,"3,04E+13",24 RUE PAGES,"92150",SURESNES,"48.87194544134423","2.2300306382250663","2154.0",3530Z,Production et distribution de vapeur et d'air conditionnÃ©,1.(c),Centrales thermiques et autres installations de combustion avec un apport thermiques de 50 MW,"[['Air', ""Dioxyde de carbone (CO2) total (d'origine biomasse et non biomasse)"", 14700000.0, 'kg/an'], ['Air', ""Dioxyde de carbone (CO2) d'origine non biomasse"", 14700000.0, 'kg/an']]",[],[],[],[],./0.png
2.28156520007573,48.9470618501042,"7402285",TRA SABLE,"4,43E+13",6 ROUTE DE LA SEINE,"92230",GENNEVILLIERS,"48.947061850104205","2.2815652000757303","4326.0",3700Z,Collecte et traitement des eaux usÃ©es,5.(c),Installations destinÃ©es Ã  l'Ã©limination des dÃ©chets non dangereux d'une capacitÃ© de 50 tonnes par jour,[],[],"[['R5 ', '19 08 05', 35300.0]]",[],[],./0.png
2.24565646558097,48.9320658726211,"9079201",STEP - Seine-centre,"2,58E+13",5/7 Bb Louis Seguin,"92700",COLOMBES,"48.93206587262112","2.2456564655809714","27572.0",3700Z,Collecte et traitement des eaux usÃ©es,5.(f),Installations de traitement des eaux urbaines rÃ©siduaires d'une capacitÃ© de 100 000 Ã©quivalents habitants,"[['Eau (direct)', 'Sulfonate de perfluorooctane (SPFO)', 0.0, 'kg/an'], ['Eau (direct)', 'Demande biologique en oxygène (DBO5)', 225000.0, 'kg/an'], ['Eau (direct)', 'Composés organohalogénés (exprimés en tant que AOX)', 2530.0, 'kg/an'], ['Eau (direct)', 'Chlorures (en tant que Cl total)', 4180000.0, 'kg/an'], ['Eau (direct)', 'Carbone organique total (en tant que C total ou DCO/3)', 346000.0, 'kg/an'], ['Eau (direct)', 'Azote total', 629000.0, 'kg/an'], ['Eau (direct)', 'Fluorures (en tant que F total)', 10100.0, 'kg/an'], ['Eau (direct)', 'Zinc et composés (exprimés en tant que Zn)', 1720.0, 'kg/an'], ['Eau (direct)', 'Sulfates', 4150000.0, 'kg/an'], ['Eau (direct)', 'Phosphore total', 25500.0, 'kg/an'], ['Eau (direct)', 'Nickel et composés (exprimés en tant que Ni)', 31.0, 'kg/an'], ['Eau (direct)', 'Manganèse et composés (exprimés en tant que Mn)', 1000.0, 'kg/an'], ['Eau (direct)', 'Fer et composés (exprimés en tant que Fe)', 9530.0, 'kg/an'], ['Eau (direct)', 'Demande chimique en oxygène (DCO)', 1170000.0, 'kg/an']]","[['D5 ', '19 08 01', 328.0], ['R10', '19 08 09', 59.1], ['R3 ', '19 08 02', 19.0], ['R3 ', '19 08 02', 149.0], ['R3 ', '19 08 05', 2425.0], ['R3 ', '19 08 05', 109.0], ['R3 ', '19 08 05', 22.6], ['R3 ', '19 08 05', 1386.0], ['R3 ', '19 08 05', 1591.0], ['R3 ', '19 08 05', 1140.0], ['R3 ', '19 08 05', 1076.0], ['R3 ', '19 08 05', 992.0], ['R3 ', '19 08 05', 81.0], ['R3 ', '19 08 05', 4600.0], ['R3 ', '19 08 05', 881.0], ['R3 ', '19 08 05', 610.0], ['R3 ', '19 08 05', 662.0], ['R3 ', '19 08 05', 2260.0], ['R3 ', '19 08 09', 674.0], ['R3 ', '19 08 09', 69.8], ['R5 ', '19 08 01', 71.9], ['R5 ', '19 08 01', 28.1], ['R5 ', '19 08 01', 25.3], ['R5 ', '19 08 02', 294.0], ['R5 ', '19 08 99', 434.0], ['R5 ', '20 03 06', 277.0]]",[],[],[],./0.png
2.24601140783,48.9330033778218,"7402283",SIAAP,"2,58E+13",5 BOULEVARD LOUIS SEGUIN,"92700",COLOMBES,"48.93300337782178","2.2460114078300046","2154.0",3700Z,Collecte et traitement des eaux usÃ©es,5.(b),Installations destinÃ©es Ã  l'incinÃ©ration des dÃ©chets non dangereux dans le cadre de la directive 2000/76/CE du Parlement europÃ©en et du Conseil du 4 dÃ©cembre 2000 sur l'incinÃ©ration des dÃ©chets d'une capacitÃ© de 3 tonnes par heure,"[['Air', ""Protoxyde d'azote (N2O)"", 15700.0, 'kg/an']]",[],"[['R1 ', '19 08 05', 26300.0]]","[['D5 ', '17 01 06*', 2.46], ['D5 ', '19 01 05*', 4.98], ['D5 ', '19 01 07*', 1.72], ['D9 ', '06 02 04*', 9.22], ['D9 ', '19 01 07*', 1.54], ['R13', '15 02 02*', 1.26]]",[],./0.png
2.17710130351809,48.8946255689732,"7409238",AWS FRANCE,"4,87E+13",52 RUE DU PORT,"92000",NANTERRE,"48.89462556897325","2.177101303518094","4326.0",3811Z,Collecte des dÃ©chets non dangereux,,,[],[],"[['R13', '17 03 02', 61.0], ['R13', '17 03 02', 73.3], ['R13', '17 03 02', 125.0], ['R13', '17 03 02', 79.5], ['R13', '17 03 02', 156.0], ['R13', '17 03 02', 93.3], ['R13', '17 03 02', 7.18], ['R13', '17 05 04', 2410.0], ['R13', '17 05 04', 30.2], ['R13', '17 05 04', 30.9], ['R13', '17 05 04', 63100.0], ['R13', '17 05 04', 1850.0]]",[],"[['D13', '17 05 03*', 0.0], ['D13', '17 05 03*', 0.0], ['D15', '17 05 03*', 0.0], ['R13', '17 03 01*', 0.0], ['R13', '17 03 01*', 0.0], ['R13', '17 05 03*', 108.0]]",./0.png
2.28870851608731,48.9448652302487,"7402240",SUEZ RV Ile-de-France SAS,"6,62E+13",21 ROUTE DU BASSIN NÂ° 5,"92230",GENNEVILLIERS,"48.94486523024871","2.2887085160873064","4326.0",3811Z,Collecte des dÃ©chets non dangereux,,,[],[],"[['R12', '20 03 01', 0.0]]","[['R12', '03 01 04*', 8.24], ['R12', '03 01 04*', 16.8], ['R5 ', '13 05 06*', 30.0]]",[],./0.png
2.29867047367032,48.9492404803508,"7408472",ECOPUR/SEVIA,"3,54E+13",8 IMPASSE DES PETITS MARAIS,"92230",GENNEVILLIERS,"48.94924048035075","2.298670473670324","2154.0",3821Z,Traitement et Ã©limination des dÃ©chets non dangereux,,,[],[],"[['D13', '06 01 99', 0.0], ['D13', '06 01 99', 0.0], ['D13', '06 01 99', 0.0], ['D13', '06 01 99', 0.0], ['D13', '06 01 99', 0.0], ['D13', '06 01 99', 0.0], ['D13', '06 01 99', 0.0], ['D13', '06 01 99', 0.0], ['D13', '16 01 17', 0.0], ['D13', '16 01 19', 0.0], ['D13', '20 01 38', 0.0], ['D13', '20 03 99', 0.0], ['D13', '20 03 99', 0.0], ['D13', '20 03 99', 0.0], ['D13', '20 03 99', 0.0], ['D13', '20 03 99', 0.0], ['D13', '20 03 99', 0.0], ['D13', '20 03 99', 0.0], ['R12', '16 01 17', 0.0], ['R12', '16 01 17', 0.0], ['R12', '16 01 17', 0.0], ['R12', '16 01 17', 0.0], ['R12', '16 01 17', 0.0], ['R12', '16 01 17', 0.0], ['R12', '16 01 17', 0.0], ['R12', '16 01 17', 0.0], ['R12', '16 01 17', 0.0], ['R12', '16 01 17', 0.0], ['R12', '16 01 17', 0.0], ['R12', '16 01 17', 0.0], ['R12', '16 01 18', 0.0], ['R12', '16 01 18', 0.0], ['R12', '16 01 18', 0.0], ['R12', '16 01 18', 0.0], ['R12', '16 01 18', 0.0], ['R12', '16 01 19', 0.0], ['R12', '16 01 19', 0.0], ['R12', '16 01 19', 0.0], ['R12', '16 01 19', 0.0], ['R12', '16 01 19', 0.0], ['R12', '16 01 19', 0.0], ['R12', '16 01 19', 0.0], ['R12', '16 01 19', 0.0], ['R12', '16 01 19', 0.0], ['R12', '16 01 20', 0.0], ['R12', '16 01 20', 0.0], ['R12', '16 01 20', 0.0], ['R12', '16 01 20', 0.0], ['R12', '16 01 20', 0.0], ['R12', '16 01 20', 0.0], ['R12', '16 01 20', 0.0], ['R12', '16 01 20', 0.0], ['R12', '16 01 20', 0.0], ['R12', '16 01 20', 0.0], ['R12', '16 01 20', 0.0], ['R12', '20 03 99', 0.0], ['R13', '06 10 99', 0.0], ['R13', '06 10 99', 0.0], ['R13', '06 10 99', 0.0]]","[['D13', '07 01 01*', 39.8], ['D13', '07 01 01*', 70.5], ['D13', '16 03 05*', 0.669], ['D13', '16 05 06*', 0.323], ['D9 ', '06 01 06*', 2.97], ['D9 ', '06 02 05*', 12.8], ['R1 ', '02 01 08*', 2.14], ['R1 ', '08 01 11*', 363.0], ['R1 ', '13 02 05*', 44.6], ['R1 ', '13 02 05*', 87.6], ['R1 ', '13 02 05*', 4.5], ['R1 ', '13 02 05*', 118.0], ['R1 ', '13 02 08*', 54.3], ['R1 ', '13 03 10*', 50.2], ['R1 ', '15 01 10*', 8.08], ['R1 ', '16 05 04*', 29.2], ['R12', '13 01 05*', 7.49], ['R12', '13 02 05*', 16.3], ['R12', '13 02 05*', 2.66], ['R12', '15 01 10*', 14.3], ['R12', '16 01 08*', 0.007], ['R12', '16 01 08*', 0.017], ['R12', '16 02 13*', 0.349], ['R12', '16 05 04*', 0.017], ['R12', '16 09 04*', 0.11], ['R12', '20 01 33*', 4.88], ['R3 ', '13 05 07*', 97.4], ['R3 ', '16 01 07*', 241.0], ['R3 ', '16 01 14*', 256.0], ['R3 ', '16 01 14*', 10.0], ['R4 ', '15 01 10*', 38.0], ['R4 ', '16 02 13*', 19.7], ['R4 ', '16 06 01*', 310.0], ['R5 ', '08 01 11*', 49.9], ['R9 ', '13 02 05*', 4150.0], ['R9 ', '13 02 08*', 1990.0]]","[['D13', '06 01 01*', 0.0], ['D13', '06 01 01*', 0.0], ['D13', '06 01 01*', 0.0], ['D13', '06 02 05*', 0.0], ['D13', '06 02 05*', 0.0], ['D13', '06 02 05*', 0.0], ['D13', '08 01 11*', 0.0], ['D13', '08 01 11*', 0.0], ['D13', '08 01 11*', 0.0], ['D13', '08 01 11*', 0.0], ['D13', '08 01 11*', 0.0], ['D13', '08 01 11*', 0.0], ['D13', '08 01 11*', 0.0], ['D13', '08 01 11*', 0.0], ['D13', '08 01 11*', 0.0], ['D13', '14 06 02*', 0.0], ['D13', '14 06 02*', 0.0], ['D13', '14 06 02*', 0.0], ['D13', '14 06 03*', 0.0], ['D13', '14 06 03*', 0.0], ['D13', '14 06 03*', 0.0], ['D13', '14 06 03*', 0.0], ['D13', '14 06 03*', 0.0], ['D13', '14 06 03*', 0.0], ['D13', '14 06 03*', 0.0], ['D13', '14 06 03*', 0.0], ['D13', '14 06 03*', 0.0], ['D13', '14 06 03*', 0.0], ['D13', '14 06 03*', 0.0], ['D13', '14 06 03*', 0.0], ['D13', '16 01 13*', 0.0], ['D13', '16 01 13*', 0.0], ['D13', '16 01 13*', 0.0], ['D13', '16 01 13*', 0.0], ['D13', '16 01 13*', 0.0], ['D13', '16 01 13*', 0.0], ['D13', '16 01 13*', 0.0], ['D13', '16 03 05*', 0.0], ['D13', '16 03 05*', 0.0], ['D13', '16 03 05*', 0.0], ['D13', '16 03 05*', 0.0], ['D13', '16 03 05*', 0.0], ['D13', '16 03 05*', 0.0], ['D13', '16 05 06*', 0.0], ['D13', '16 05 06*', 0.0], ['D13', '16 05 06*', 0.0], ['D13', '16 05 06*', 0.0], ['D13', '16 09 04*', 0.0], ['D13', '16 09 04*', 0.0], ['D13', '16 09 04*', 0.0], ['D14', '06 01 06*', 0.0], ['D14', '06 01 06*', 0.0], ['R12', '06 13 02*', 0.0], ['R12', '08 01 11*', 0.0], ['R12', '08 01 11*', 0.0], ['R12', '08 01 11*', 0.0], ['R12', '08 01 11*', 0.0], ['R12', '08 01 11*', 0.0], ['R12', '08 01 11*', 0.0], ['R12', '08 01 11*', 0.0], ['R12', '08 01 11*', 0.0], ['R12', '08 01 11*', 0.0], ['R12', '08 01 11*', 0.0], ['R12', '08 01 11*', 0.0], ['R12', '08 01 11*', 0.0], ['R12', '08 01 11*', 0.0], ['R12', '08 01 11*', 0.0], ['R12', '08 03 17*', 0.0], ['R12', '12 01 09*', 0.0], ['R12', '12 01 09*', 0.0], ['R12', '12 01 09*', 0.0], ['R12', '12 01 09*', 0.0], ['R12', '12 01 09*', 0.0], ['R12', '12 01 09*', 0.0], ['R12', '12 01 09*', 0.0], ['R12', '12 01 09*', 0.0], ['R12', '12 01 12*', 0.0], ['R12', '13 02 08*', 0.0], ['R12', '13 02 08*', 0.0], ['R12', '13 02 08*', 0.0], ['R12', '13 02 08*', 0.0], ['R12', '13 02 08*', 0.0], ['R12', '13 02 08*', 0.0], ['R12', '13 02 08*', 0.0], ['R12', '13 02 08*', 0.0], ['R12', '13 02 08*', 0.0], ['R12', '13 05 02*', 0.0], ['R12', '13 05 02*', 0.0], ['R12', '13 07 03*', 0.0], ['R12', '13 07 03*', 0.0], ['R12', '13 07 03*', 0.0], ['R12', '13 07 03*', 0.0], ['R12', '13 07 03*', 0.0], ['R12', '13 07 03*', 0.0], ['R12', '13 07 03*', 0.0], ['R12', '13 07 03*', 0.0], ['R12', '13 07 03*', 0.0], ['R12', '13 07 03*', 0.0], ['R12', '13 07 03*', 0.0], ['R12', '13 07 03*', 0.0], ['R12', '13 07 03*', 0.0], ['R12', '14 06 03*', 0.0], ['R12', '14 06 03*', 0.0], ['R12', '14 06 04*', 0.0], ['R12', '14 06 04*', 0.0], ['R12', '14 06 04*', 0.0], ['R12', '15 01 10*', 0.0], ['R12', '15 01 10*', 0.0], ['R12', '15 01 10*', 0.0], ['R12', '15 01 10*', 0.0], ['R12', '15 01 10*', 0.0], ['R12', '15 01 10*', 0.0], ['R12', '15 01 10*', 0.0], ['R12', '15 01 10*', 0.0], ['R12', '15 01 10*', 0.0], ['R12', '15 01 10*', 0.0], ['R12', '15 01 10*', 0.0], ['R12', '15 01 10*', 0.0], ['R12', '15 01 10*', 0.0], ['R12', '15 01 10*', 0.0], ['R12', '15 01 10*', 0.0], ['R12', '15 02 02*', 0.0], ['R12', '15 02 02*', 0.0], ['R12', '15 02 02*', 0.0], ['R12', '15 02 02*', 0.0], ['R12', '15 02 02*', 0.0], ['R12', '15 02 02*', 0.0], ['R12', '15 02 02*', 0.0], ['R12', '15 02 02*', 0.0], ['R12', '15 02 02*', 0.0], ['R12', '15 02 02*', 0.0], ['R12', '15 02 02*', 0.0], ['R12', '15 02 02*', 0.0], ['R12', '15 02 02*', 0.0], ['R12', '15 02 02*', 0.0], ['R12', '15 02 02*', 0.0], ['R12', '15 02 02*', 0.0], ['R12', '15 02 02*', 0.0], ['R12', '16 01 07*', 0.0], ['R12', '16 01 07*', 0.0], ['R12', '16 01 07*', 0.0], ['R12', '16 01 07*', 0.0], ['R12', '16 01 07*', 0.0], ['R12', '16 01 07*', 0.0], ['R12', '16 01 07*', 0.0], ['R12', '16 01 07*', 0.0], ['R12', '16 01 07*', 0.0], ['R12', '16 01 07*', 0.0], ['R12', '16 01 07*', 0.0], ['R12', '16 01 07*', 0.0], ['R12', '16 01 07*', 0.0], ['R12', '16 01 07*', 0.0], ['R12', '16 01 07*', 0.0], ['R12', '16 01 07*', 0.0], ['R12', '16 01 14*', 0.0], ['R12', '16 01 14*', 0.0], ['R12', '16 01 14*', 0.0], ['R12', '16 01 14*', 0.0], ['R12', '16 01 14*', 0.0], ['R12', '16 01 14*', 0.0], ['R12', '16 01 14*', 0.0], ['R12', '16 01 14*', 0.0], ['R12', '16 01 14*', 0.0], ['R12', '16 01 14*', 0.0], ['R12', '16 01 14*', 0.0], ['R12', '16 01 14*', 0.0], ['R12', '16 01 14*', 0.0], ['R12', '16 01 14*', 0.0], ['R12', '16 01 21*', 0.0], ['R12', '16 02 13*', 0.0], ['R12', '16 02 13*', 0.0], ['R12', '16 02 13*', 0.0], ['R12', '16 02 13*', 0.0], ['R12', '16 02 13*', 0.0], ['R12', '16 02 13*', 0.0], ['R12', '16 02 13*', 0.0], ['R12', '16 02 13*', 0.0], ['R12', '16 02 13*', 0.0], ['R12', '16 02 13*', 0.0], ['R12', '16 02 13*', 0.0], ['R12', '16 02 13*', 0.0], ['R12', '16 05 04*', 0.0], ['R12', '16 05 04*', 0.0], ['R12', '16 05 04*', 0.0], ['R12', '16 05 04*', 0.0], ['R12', '16 05 04*', 0.0], ['R12', '16 05 04*', 0.0], ['R12', '16 05 04*', 0.0], ['R12', '16 05 04*', 0.0], ['R12', '16 05 04*', 0.0], ['R12', '16 05 04*', 0.0], ['R12', '16 05 04*', 0.0], ['R12', '16 05 04*', 0.0], ['R12', '16 05 04*', 0.0], ['R12', '16 05 04*', 0.0], ['R12', '16 05 04*', 0.0], ['R12', '16 05 04*', 0.0], ['R12', '16 06 01*', 0.0], ['R12', '16 06 01*', 0.0], ['R12', '16 06 01*', 0.0], ['R12', '16 06 01*', 0.0], ['R12', '16 06 01*', 0.0], ['R12', '16 06 01*', 0.0], ['R12', '16 06 01*', 0.0], ['R12', '16 06 01*', 0.0], ['R12', '16 06 01*', 0.0], ['R12', '16 06 01*', 0.0], ['R12', '16 06 01*', 0.0], ['R12', '16 06 01*', 0.0], ['R12', '16 08 02*', 0.0], ['R12', '16 08 02*', 0.0], ['R12', '17 03 01*', 0.0], ['R12', '17 03 01*', 0.0], ['R12', '17 03 01*', 0.0], ['R12', '17 03 01*', 0.0], ['R12', '17 03 01*', 0.0], ['R12', '17 03 01*', 0.0], ['R12', '20 01 19*', 0.0], ['R12', '20 01 19*', 0.0], ['R12', '20 01 33*', 0.0], ['R12', '20 01 33*', 0.0], ['R12', '20 01 33*', 0.0], ['R12', '20 01 33*', 0.0], ['R12', '20 01 33*', 0.0], ['R12', '20 01 33*', 0.0], ['R12', '20 01 33*', 0.0], ['R12', '20 01 33*', 0.0], ['R12', '20 01 33*', 0.0], ['R12', '20 01 33*', 0.0], ['R13', '12 01 09*', 0.0], ['R13', '12 01 09*', 0.0], ['R13', '13 02 05*', 0.0], ['R13', '13 02 05*', 0.0], ['R13', '13 02 05*', 0.0], ['R13', '13 02 05*', 0.0], ['R13', '13 02 05*', 0.0], ['R13', '13 02 05*', 0.0], ['R13', '13 02 05*', 0.0], ['R13', '13 02 05*', 0.0], ['R13', '13 02 05*', 0.0], ['R13', '13 02 05*', 0.0], ['R13', '13 02 05*', 0.0], ['R13', '13 02 05*', 0.0], ['R13', '13 02 05*', 0.0], ['R13', '13 02 08*', 0.0], ['R13', '13 02 08*', 0.0], ['R13', '13 02 08*', 0.0], ['R13', '13 02 08*', 0.0], ['R13', '13 02 08*', 0.0], ['R13', '13 02 08*', 0.0], ['R13', '13 02 08*', 0.0], ['R13', '13 02 08*', 0.0], ['R13', '13 02 08*', 0.0], ['R13', '13 02 08*', 0.0], ['R13', '13 02 08*', 0.0], ['R13', '13 02 08*', 0.0], ['R13', '13 03 07*', 0.0], ['R13', '13 05 07*', 0.0], ['R13', '13 05 07*', 0.0], ['R13', '13 05 07*', 0.0], ['R13', '13 05 07*', 0.0], ['R13', '13 05 07*', 0.0], ['R13', '13 05 07*', 0.0], ['R13', '16 01 14*', 0.0], ['R13', '16 01 14*', 0.0], ['R13', '16 01 14*', 0.0], ['R13', '16 01 14*', 0.0], ['R13', '16 01 14*', 0.0], ['R13', '16 01 14*', 0.0], ['R13', '16 01 14*', 0.0], ['R13', '16 01 14*', 0.0], ['R13', '16 01 14*', 0.0], ['R13', '16 10 01*', 0.0], ['R13', '16 10 01*', 0.0], ['R13', '16 10 01*', 0.0], ['R13', '16 10 01*', 0.0], ['R13', '16 10 01*', 0.0], ['R13', '16 10 01*', 0.0], ['R13', '16 10 01*', 0.0]]",./0.png
2.29584656328858,48.9480548619308,"7403865",SUEZ RR IWS CHEMICALS FRANCE,"4,45E+13",18 ROUTE DU BASSIN NÂ°6,"92230",GENNEVILLIERS,"48.94805486193077","2.2958465632885776","2154.0",3822Z,Traitement et Ã©limination des dÃ©chets dangereux,5.(a),Installations pour la valorisation ou l'Ã©limination des dÃ©chets dangereux recevant 10 tonnes par jour,[],[],"[['D13', '06 03 14', 0.018], ['D13', '06 07 99', 0.076], ['D13', '06 08 99', 0.021], ['D13', '06 13 99', 0.077], ['D13', '06 13 99', 4.42], ['D13', '07 01 99', 0.07], ['D13', '07 01 99', 0.023], ['D13', '07 01 99', 0.111], ['D13', '07 02 99', 0.653], ['D13', '07 05 99', 1.61], ['D13', '07 05 99', 11.0], ['D13', '07 05 99', 0.245], ['D13', '07 06 99', 0.573], ['D13', '10 01 01', 1.29], ['D13', '10 10 99', 1.24], ['D13', '11 01 12', 1.17], ['D13', '16 01 99', 6.38], ['D13', '16 02 14', 0.718], ['D13', '16 03 04', 5.41], ['D13', '16 03 04', 7.42], ['D13', '16 03 04', 1.95], ['D13', '16 03 06', 2.9], ['D13', '16 05 09', 0.397], ['D13', '16 10 02', 0.358], ['D13', '16 10 02', 1.34], ['D13', '18 02 06', 0.026], ['D13', '20 01 99', 0.09], ['D15', '06 03 14', 1.04], ['D15', '06 03 14', 0.024], ['D15', '06 13 99', 0.024], ['D15', '16 03 06', 0.025], ['D15', '16 06 05', 0.002], ['D15', '16 10 02', 0.25], ['D15', '20 01 25', 0.043], ['R12', '02 05 99', 2.98], ['R12', '02 07 99', 0.059], ['R12', '06 07 99', 0.12], ['R12', '06 13 99', 0.772], ['R12', '06 13 99', 1.23], ['R12', '06 13 99', 0.801], ['R12', '06 13 99', 0.111], ['R12', '07 01 99', 0.281], ['R12', '07 02 99', 3.93], ['R12', '07 05 99', 0.206], ['R12', '07 05 99', 4.15], ['R12', '07 05 99', 3.75], ['R12', '07 06 99', 0.06], ['R12', '07 06 99', 16.6], ['R12', '07 07 99', 0.108], ['R12', '07 07 99', 0.071], ['R12', '07 07 99', 0.412], ['R12', '07 07 99', 0.73], ['R12', '08 03 08', 0.205], ['R12', '08 03 13', 0.001], ['R12', '08 03 13', 0.168], ['R12', '08 03 18', 1.46], ['R12', '08 03 18', 0.433], ['R12', '08 03 18', 0.839], ['R12', '08 03 18', 0.167], ['R12', '08 03 18', 0.456], ['R12', '08 03 18', 0.508], ['R12', '08 03 18', 0.232], ['R12', '09 01 07', 0.201], ['R12', '10 03 05', 0.184], ['R12', '10 03 05', 0.08], ['R12', '10 10 99', 0.363], ['R12', '12 01 99', 0.012], ['R12', '15 01 04', 0.024], ['R12', '15 01 06', 0.005], ['R12', '15 01 06', 0.152], ['R12', '15 02 03', 0.221], ['R12', '15 02 03', 0.632], ['R12', '15 02 03', 0.006], ['R12', '15 02 03', 20.4], ['R12', '15 02 03', 0.38], ['R12', '16 01 99', 0.977], ['R12', '16 02 14', 0.037], ['R12', '16 02 14', 0.918], ['R12', '16 02 14', 1.59], ['R12', '16 02 14', 0.15], ['R12', '16 02 14', 0.263], ['R12', '16 02 14', 1.22], ['R12', '16 02 14', 13.8], ['R12', '16 02 14', 0.934], ['R12', '16 02 14', 0.993], ['R12', '16 02 14', 0.207], ['R12', '16 03 04', 16.5], ['R12', '16 03 04', 0.208], ['R12', '16 03 04', 0.051], ['R12', '16 03 06', 35.5], ['R12', '16 03 06', 0.276], ['R12', '16 03 06', 0.069], ['R12', '16 05 05', 0.069], ['R12', '16 05 09', 0.046], ['R12', '16 05 09', 0.015], ['R12', '16 06 04', 0.015], ['R12', '16 06 04', 0.161], ['R12', '16 06 04', 0.042], ['R12', '16 06 04', 0.3], ['R12', '16 06 05', 0.047], ['R12', '16 06 05', 0.034], ['R12', '16 06 05', 0.519], ['R12', '16 06 05', 0.19], ['R12', '16 06 05', 0.071], ['R12', '16 06 05', 0.126], ['R12', '16 06 05', 0.105], ['R12', '16 06 05', 0.161], ['R12', '16 06 05', 0.075], ['R12', '16 06 05', 0.064], ['R12', '16 06 05', 0.459], ['R12', '16 06 05', 0.298], ['R12', '16 06 05', 0.055], ['R12', '16 06 05', 0.132], ['R12', '20 01 25', 0.802], ['R12', '20 01 25', 0.021], ['R12', '20 01 32', 8.53], ['R12', '20 01 36', 0.233], ['R12', '20 01 36', 1.38], ['R12', '20 01 36', 0.315], ['R12', '20 01 36', 3.15], ['R12', '20 01 36', 0.339], ['R12', '20 01 36', 6.25], ['R12', '20 01 99', 2.2], ['R12', '20 01 99', 7.47], ['R12', '20 01 99', 0.557], ['R13', '02 06 99', 1.71], ['R13', '02 07 99', 0.253], ['R13', '06 07 99', 0.182], ['R13', '06 13 99', 0.049], ['R13', '06 13 99', 0.04], ['R13', '07 01 99', 0.41], ['R13', '07 07 99', 0.126], ['R13', '16 05 09', 0.23], ['R13', '20 01 36', 0.364], ['R5 ', '16 02 14', 0.537]]","[['D10', '06 01 06*', 90.2], ['D10', '06 02 05*', 12.8], ['D10', '16 05 06*', 3.42], ['D10', '16 10 01*', 23.7], ['D13', '16 05 07*', 82.0], ['D13', '16 05 08*', 117.0], ['D13', '16 10 01*', 6.78], ['D5 ', '12 01 16*', 14.2], ['D5 ', '17 09 03*', 2.59], ['D9 ', '16 05 07*', 120.0], ['R1 ', '07 01 04*', 51.1], ['R1 ', '07 01 09*', 729.0], ['R1 ', '07 05 13*', 76.4], ['R1 ', '07 07 08*', 36.9], ['R1 ', '15 01 10*', 1.58], ['R1 ', '15 01 10*', 208.0], ['R1 ', '15 01 10*', 269.0], ['R1 ', '16 03 05*', 326.0], ['R12', '02 01 08*', 5.94], ['R12', '06 01 06*', 27.2], ['R12', '07 05 13*', 36.2], ['R12', '14 06 02*', 24.3], ['R12', '14 06 03*', 15.5], ['R12', '14 06 03*', 190.0], ['R12', '15 01 10*', 21.2], ['R12', '16 05 07*', 2.2], ['R12', '16 05 08*', 319.0], ['R4 ', '15 01 10*', 3.88], ['R4 ', '16 02 09*', 1.55], ['R4 ', '16 05 04*', 69.2], ['R4 ', '20 01 21*', 1.93], ['R4 ', '20 01 35*', 106.0], ['R5 ', '06 01 06*', 105.0], ['R5 ', '06 02 05*', 14.9], ['R5 ', '15 01 10*', 14.2]]","[['D13', '02 01 08*', 0.136], ['D13', '02 01 08*', 0.793], ['D13', '06 01 02*', 0.089], ['D13', '06 01 03*', 0.01], ['D13', '06 01 06*', 0.255], ['D13', '06 01 06*', 0.547], ['D13', '06 01 06*', 0.263], ['D13', '06 01 06*', 0.206], ['D13', '06 01 06*', 0.392], ['D13', '06 01 06*', 0.4], ['D13', '06 01 06*', 0.364], ['D13', '06 01 06*', 0.763], ['D13', '06 01 06*', 0.391], ['D13', '06 01 06*', 0.144], ['D13', '06 01 06*', 0.156], ['D13', '06 01 06*', 0.25], ['D13', '06 02 01*', 0.51], ['D13', '06 02 04*', 0.332], ['D13', '06 02 04*', 0.173], ['D13', '06 02 05*', 0.126], ['D13', '06 02 05*', 1.29], ['D13', '06 02 05*', 0.034], ['D13', '06 02 05*', 1.12], ['D13', '06 02 05*', 1.92], ['D13', '06 02 05*', 5.39], ['D13', '06 02 05*', 0.025], ['D13', '06 02 05*', 0.001], ['D13', '06 02 05*', 0.055], ['D13', '06 03 11*', 0.372], ['D13', '06 03 13*', 0.024], ['D13', '06 03 13*', 0.013], ['D13', '06 03 13*', 0.035], ['D13', '06 03 15*', 0.141], ['D13', '06 04 03*', 0.702], ['D13', '06 04 04*', 0.043], ['D13', '06 04 04*', 0.041], ['D13', '06 04 04*', 0.235], ['D13', '06 04 04*', 0.006], ['D13', '06 04 05*', 0.041], ['D13', '06 04 05*', 0.039], ['D13', '06 04 05*', 0.278], ['D13', '06 10 02*', 8.18], ['D13', '07 01 01*', 5.77], ['D13', '07 01 01*', 0.879], ['D13', '07 01 01*', 20.7], ['D13', '07 01 03*', 3.18], ['D13', '07 01 03*', 0.151], ['D13', '07 01 03*', 0.973], ['D13', '07 01 04*', 0.271], ['D13', '07 01 04*', 8.05], ['D13', '07 01 04*', 6.24], ['D13', '07 01 04*', 1.83], ['D13', '07 01 04*', 0.197], ['D13', '07 01 04*', 0.567], ['D13', '07 01 04*', 0.233], ['D13', '07 01 04*', 0.034], ['D13', '07 01 04*', 0.01], ['D13', '07 01 07*', 0.053], ['D13', '07 01 08*', 0.113], ['D13', '07 02 04*', 4.57], ['D13', '07 04 01*', 0.335], ['D13', '07 04 07*', 1.38], ['D13', '07 04 13*', 0.022], ['D13', '07 04 13*', 0.151], ['D13', '07 05 01*', 1.18], ['D13', '07 05 04*', 7.85], ['D13', '07 05 09*', 4.5], ['D13', '07 05 13*', 4.11], ['D13', '07 05 13*', 0.033], ['D13', '07 06 01*', 0.585], ['D13', '07 06 01*', 0.199], ['D13', '07 06 01*', 2.6], ['D13', '07 06 04*', 18.1], ['D13', '07 06 04*', 0.032], ['D13', '07 07 08*', 55.1], ['D13', '08 01 11*', 2.56], ['D13', '08 01 13*', 0.134], ['D13', '08 01 19*', 1.78], ['D13', '08 01 19*', 0.278], ['D13', '09 01 02*', 0.02], ['D13', '09 01 04*', 0.172], ['D13', '10 11 09*', 0.038], ['D13', '11 01 05*', 0.652], ['D13', '11 01 06*', 3.04], ['D13', '11 01 06*', 0.965], ['D13', '11 01 06*', 0.599], ['D13', '11 01 07*', 0.573], ['D13', '11 01 11*', 3.51], ['D13', '11 01 98*', 7.14], ['D13', '11 01 98*', 0.007], ['D13', '11 01 98*', 0.973], ['D13', '11 03 02*', 0.213], ['D13', '12 01 09*', 0.454], ['D13', '12 01 16*', 2.78], ['D13', '12 01 16*', 2.34], ['D13', '12 03 01*', 4.84], ['D13', '12 03 01*', 5.29], ['D13', '13 02 05*', 2.14], ['D13', '13 08 02*', 1.12], ['D13', '13 08 99*', 3.13], ['D13', '14 06 03*', 0.06], ['D13', '14 06 03*', 0.263], ['D13', '14 06 03*', 0.035], ['D13', '15 01 10*', 0.837], ['D13', '15 01 10*', 1.08], ['D13', '15 01 10*', 0.032], ['D13', '15 01 10*', 0.209], ['D13', '15 01 10*', 0.185], ['D13', '15 01 10*', 0.719], ['D13', '15 01 10*', 0.311], ['D13', '15 01 10*', 0.262], ['D13', '15 01 10*', 1.48], ['D13', '15 01 10*', 2.5], ['D13', '15 01 10*', 1.47], ['D13', '15 02 02*', 1.51], ['D13', '15 02 02*', 0.08], ['D13', '15 02 02*', 0.464], ['D13', '15 02 02*', 3.26], ['D13', '16 01 14*', 0.399], ['D13', '16 01 14*', 0.018], ['D13', '16 03 03*', 0.043], ['D13', '16 03 03*', 13.1], ['D13', '16 03 03*', 3.67], ['D13', '16 03 03*', 6.62], ['D13', '16 03 03*', 0.04], ['D13', '16 03 05*', 0.093], ['D13', '16 03 05*', 3.61], ['D13', '16 03 05*', 0.043], ['D13', '16 03 05*', 3.75], ['D13', '16 03 05*', 0.146], ['D13', '16 03 05*', 0.74], ['D13', '16 05 04*', 0.001], ['D13', '16 05 06*', 2.67], ['D13', '16 05 06*', 6.91], ['D13', '16 05 06*', 4.35], ['D13', '16 05 06*', 3.33], ['D13', '16 05 06*', 5.57], ['D13', '16 05 06*', 3.97], ['D13', '16 05 06*', 14.0], ['D13', '16 05 06*', 0.878], ['D13', '16 05 06*', 1.36], ['D13', '16 05 06*', 0.422], ['D13', '16 05 06*', 0.016], ['D13', '16 05 06*', 10.0], ['D13', '16 05 06*', 4.06], ['D13', '16 05 06*', 14.0], ['D13', '16 05 06*', 5.76], ['D13', '16 05 06*', 0.033], ['D13', '16 05 06*', 13.3], ['D13', '16 05 06*', 2.34], ['D13', '16 05 06*', 10.6], ['D13', '16 05 06*', 4.95], ['D13', '16 05 06*', 0.144], ['D13', '16 05 06*', 15.4], ['D13', '16 05 07*', 0.003], ['D13', '16 05 07*', 1.62], ['D13', '16 05 07*', 0.069], ['D13', '16 05 07*', 0.079], ['D13', '16 05 07*', 0.059], ['D13', '16 05 07*', 0.131], ['D13', '16 05 07*', 0.215], ['D13', '16 05 07*', 5.19], ['D13', '16 05 07*', 0.232], ['D13', '16 05 07*', 3.92], ['D13', '16 05 08*', 0.856], ['D13', '16 05 08*', 0.479], ['D13', '16 05 08*', 1.2], ['D13', '16 05 08*', 0.65], ['D13', '16 05 08*', 2.58], ['D13', '16 05 08*', 0.064], ['D13', '16 05 08*', 0.049], ['D13', '16 05 08*', 8.2], ['D13', '16 05 08*', 2.61], ['D13', '16 05 08*', 0.607], ['D13', '16 05 08*', 1.01], ['D13', '16 05 08*', 11.8], ['D13', '16 05 08*', 9.58], ['D13', '16 05 08*', 0.74], ['D13', '16 05 08*', 0.137], ['D13', '16 05 08*', 0.642], ['D13', '16 06 01*', 0.222], ['D13', '16 06 06*', 0.008], ['D13', '16 07 09*', 0.311], ['D13', '16 09 03*', 2.36], ['D13', '16 09 03*', 0.873], ['D13', '16 09 04*', 0.284], ['D13', '16 10 01*', 0.921], ['D13', '16 10 01*', 0.02], ['D13', '16 10 01*', 32.8], ['D13', '16 10 01*', 1.03], ['D13', '16 10 01*', 6.49], ['D13', '16 10 01*', 0.481], ['D13', '16 10 01*', 2.19], ['D13', '16 10 01*', 0.029], ['D13', '16 10 01*', 10.2], ['D13', '16 10 01*', 0.688], ['D13', '16 10 01*', 1.95], ['D13', '16 10 01*', 13.1], ['D13', '16 10 01*', 0.04], ['D13', '17 02 04*', 0.139], ['D13', '17 05 03*', 0.443], ['D13', '17 05 03*', 0.886], ['D13', '17 09 03*', 2.92], ['D13', '18 01 06*', 2.05], ['D13', '18 01 06*', 0.408], ['D13', '18 01 06*', 5.66], ['D13', '18 01 06*', 0.132], ['D13', '18 01 06*', 12.8], ['D13', '18 01 08*', 0.248], ['D13', '18 01 08*', 0.926], ['D13', '18 01 08*', 0.704], ['D13', '18 01 08*', 0.081], ['D13', '19 13 01*', 0.083], ['D13', '20 01 13*', 0.141], ['D13', '20 01 13*', 5.34], ['D13', '20 01 14*', 0.196], ['D13', '20 01 14*', 0.191], ['D13', '20 01 19*', 0.283], ['D13', '20 01 19*', 0.515], ['D13', '20 01 19*', 0.1], ['D13', '20 01 19*', 1.01], ['D13', '20 01 19*', 2.78], ['D13', '20 01 21*', 0.04], ['D13', '20 01 27*', 0.002], ['D15', '02 01 08*', 0.064], ['D15', '05 07 01*', 0.012], ['D15', '06 01 01*', 0.065], ['D15', '06 01 03*', 0.04], ['D15', '06 01 06*', 0.79], ['D15', '06 01 06*', 0.188], ['D15', '06 01 06*', 0.035], ['D15', '06 01 06*', 0.42], ['D15', '06 01 06*', 0.523], ['D15', '06 01 06*', 1.95], ['D15', '06 01 06*', 0.47], ['D15', '06 01 06*', 0.037], ['D15', '06 01 06*', 3.36], ['D15', '06 02 05*', 0.01], ['D15', '06 02 05*', 0.032], ['D15', '06 02 05*', 0.068], ['D15', '06 02 05*', 0.334], ['D15', '06 02 05*', 0.128], ['D15', '06 02 05*', 1.97], ['D15', '06 02 05*', 0.019], ['D15', '06 03 15*', 1.32], ['D15', '06 04 04*', 0.138], ['D15', '06 04 05*', 1.14], ['D15', '06 04 05*', 0.051], ['D15', '07 01 01*', 0.083], ['D15', '07 01 04*', 0.147], ['D15', '07 01 04*', 0.18], ['D15', '07 01 04*', 0.011], ['D15', '07 01 04*', 0.064], ['D15', '07 01 04*', 3.52], ['D15', '07 05 03*', 0.126], ['D15', '07 05 04*', 0.082], ['D15', '07 05 04*', 0.045], ['D15', '07 05 13*', 0.049], ['D15', '07 07 03*', 0.194], ['D15', '07 07 03*', 0.559], ['D15', '07 07 04*', 22.6], ['D15', '07 07 04*', 0.011], ['D15', '07 07 07*', 9.11], ['D15', '07 07 08*', 17.6], ['D15', '08 01 11*', 0.936], ['D15', '08 04 09*', 0.744], ['D15', '11 01 06*', 1.32], ['D15', '11 01 11*', 0.33], ['D15', '11 01 16*', 0.009], ['D15', '12 01 08*', 0.313], ['D15', '12 01 09*', 5.31], ['D15', '13 01 13*', 1.02], ['D15', '14 06 02*', 0.214], ['D15', '14 06 02*', 0.138], ['D15', '14 06 02*', 0.642], ['D15', '14 06 03*', 0.609], ['D15', '14 06 03*', 0.037], ['D15', '14 06 03*', 0.024], ['D15', '14 06 03*', 0.158], ['D15', '15 01 10*', 0.457], ['D15', '15 01 10*', 1.0], ['D15', '15 01 10*', 2.91], ['D15', '15 01 10*', 0.627], ['D15', '15 01 10*', 0.024], ['D15', '15 01 10*', 3.25], ['D15', '15 01 10*', 12.4], ['D15', '15 01 10*', 0.884], ['D15', '15 01 10*', 0.588], ['D15', '15 01 10*', 0.231], ['D15', '15 02 02*', 0.049], ['D15', '15 02 02*', 0.007], ['D15', '16 02 13*', 0.292], ['D15', '16 03 03*', 0.08], ['D15', '16 03 05*', 0.513], ['D15', '16 03 05*', 0.315], ['D15', '16 03 05*', 0.863], ['D15', '16 03 05*', 2.71], ['D15', '16 03 05*', 0.002], ['D15', '16 05 04*', 0.213], ['D15', '16 05 04*', 0.011], ['D15', '16 05 06*', 0.386], ['D15', '16 05 06*', 5.91], ['D15', '16 05 06*', 2.04], ['D15', '16 05 06*', 3.28], ['D15', '16 05 06*', 0.305], ['D15', '16 05 06*', 0.059], ['D15', '16 05 06*', 0.623], ['D15', '16 05 06*', 0.107], ['D15', '16 05 06*', 0.529], ['D15', '16 05 06*', 7.37], ['D15', '16 05 06*', 1.61], ['D15', '16 05 06*', 0.045], ['D15', '16 05 06*', 0.037], ['D15', '16 05 07*', 0.03], ['D15', '16 05 07*', 0.146], ['D15', '16 05 08*', 0.897], ['D15', '16 05 08*', 0.595], ['D15', '16 05 08*', 4.58], ['D15', '16 05 08*', 0.086], ['D15', '16 05 08*', 1.05], ['D15', '16 05 08*', 0.09], ['D15', '16 05 08*', 3.29], ['D15', '16 05 08*', 0.533], ['D15', '16 05 08*', 12.3], ['D15', '16 05 08*', 0.649], ['D15', '16 05 08*', 0.074], ['D15', '16 09 03*', 2.39], ['D15', '16 10 01*', 0.033], ['D15', '16 10 01*', 0.138], ['D15', '16 10 03*', 0.015], ['D15', '17 03 03*', 0.066], ['D15', '17 03 03*', 0.01], ['D15', '17 03 03*', 0.073], ['D15', '17 03 03*', 0.07], ['D15', '17 05 03*', 0.527], ['D15', '17 05 03*', 0.913], ['D15', '18 01 06*', 6.89], ['D15', '18 01 08*', 0.083], ['D15', '18 01 08*', 39.7], ['D15', '18 01 08*', 9.36], ['D15', '20 01 14*', 0.118], ['R1 ', '07 05 13*', 0.598], ['R12', '02 01 08*', 1.43], ['R12', '02 01 08*', 22.1], ['R12', '06 01 01*', 3.53], ['R12', '06 01 01*', 0.101], ['R12', '06 01 01*', 4.44], ['R12', '06 01 01*', 0.808], ['R12', '06 01 02*', 0.127], ['R12', '06 01 02*', 0.416], ['R12', '06 01 02*', 0.085], ['R12', '06 01 03*', 0.172], ['R12', '06 01 03*', 1.89], ['R12', '06 01 04*', 7.27], ['R12', '06 01 04*', 0.723], ['R12', '06 01 05*', 0.087], ['R12', '06 01 05*', 0.123], ['R12', '06 01 06*', 0.337], ['R12', '06 01 06*', 9.38], ['R12', '06 01 06*', 3.27], ['R12', '06 01 06*', 1.5], ['R12', '06 01 06*', 3.49], ['R12', '06 01 06*', 8.9], ['R12', '06 01 06*', 3.06], ['R12', '06 01 06*', 2.19], ['R12', '06 01 06*', 5.69], ['R12', '06 01 06*', 5.19], ['R12', '06 01 06*', 6.17], ['R12', '06 01 06*', 0.25], ['R12', '06 01 06*', 9.31], ['R12', '06 01 06*', 2.7], ['R12', '06 01 06*', 34.0], ['R12', '06 01 06*', 0.589], ['R12', '06 01 06*', 0.028], ['R12', '06 02 04*', 1.5], ['R12', '06 02 04*', 0.207], ['R12', '06 02 04*', 0.657], ['R12', '06 02 04*', 0.335], ['R12', '06 02 05*', 3.09], ['R12', '06 02 05*', 1.67], ['R12', '06 02 05*', 0.137], ['R12', '06 02 05*', 2.17], ['R12', '06 02 05*', 9.88], ['R12', '06 02 05*', 0.023], ['R12', '06 02 05*', 1.67], ['R12', '06 02 05*', 0.253], ['R12', '06 02 05*', 1.98], ['R12', '06 02 05*', 4.46], ['R12', '06 02 05*', 11.1], ['R12', '06 02 05*', 0.808], ['R12', '06 02 05*', 1.44], ['R12', '06 02 05*', 1.01], ['R12', '06 02 05*', 3.08], ['R12', '06 02 05*', 0.022], ['R12', '06 03 13*', 0.067], ['R12', '06 03 13*', 0.939], ['R12', '06 03 13*', 0.01], ['R12', '06 03 13*', 0.151], ['R12', '06 04 04*', 0.087], ['R12', '06 04 04*', 0.082], ['R12', '06 04 05*', 0.522], ['R12', '06 04 05*', 5.53], ['R12', '06 04 05*', 3.77], ['R12', '06 04 05*', 0.162], ['R12', '06 04 05*', 0.036], ['R12', '06 04 05*', 1.24], ['R12', '06 13 02*', 0.816], ['R12', '06 13 02*', 0.078], ['R12', '07 01 01*', 0.098], ['R12', '07 01 01*', 0.334], ['R12', '07 01 01*', 0.257], ['R12', '07 01 01*', 0.1], ['R12', '07 01 03*', 1.41], ['R12', '07 01 03*', 0.508], ['R12', '07 01 03*', 0.384], ['R12', '07 01 03*', 0.005], ['R12', '07 01 03*', 0.063], ['R12', '07 01 03*', 0.495], ['R12', '07 01 03*', 1.87], ['R12', '07 01 04*', 0.43], ['R12', '07 01 04*', 0.395], ['R12', '07 01 04*', 0.38], ['R12', '07 01 04*', 4.89], ['R12', '07 01 04*', 11.0], ['R12', '07 01 04*', 1.06], ['R12', '07 01 04*', 4.69], ['R12', '07 01 04*', 0.452], ['R12', '07 01 04*', 11.8], ['R12', '07 01 04*', 4.32], ['R12', '07 01 04*', 0.993], ['R12', '07 01 04*', 17.6], ['R12', '07 01 04*', 8.13], ['R12', '07 01 04*', 0.367], ['R12', '07 01 04*', 6.85], ['R12', '07 01 07*', 0.021], ['R12', '07 01 08*', 0.102], ['R12', '07 01 08*', 0.05], ['R12', '07 02 04*', 3.1], ['R12', '07 02 07*', 1.99], ['R12', '07 02 08*', 15.3], ['R12', '07 02 14*', 2.14], ['R12', '07 03 04*', 0.024], ['R12', '07 05 01*', 1.2], ['R12', '07 05 01*', 6.48], ['R12', '07 05 03*', 0.039], ['R12', '07 05 04*', 19.3], ['R12', '07 05 04*', 2.36], ['R12', '07 05 04*', 0.319], ['R12', '07 05 04*', 2.98], ['R12', '07 05 04*', 1.95], ['R12', '07 05 04*', 0.534], ['R12', '07 05 04*', 0.509], ['R12', '07 05 08*', 0.012], ['R12', '07 05 09*', 0.058], ['R12', '07 05 09*', 9.37], ['R12', '07 05 13*', 11.6], ['R12', '07 05 13*', 35.9], ['R12', '07 05 13*', 14.3], ['R12', '07 05 13*', 0.147], ['R12', '07 05 13*', 1.26], ['R12', '07 05 13*', 0.245], ['R12', '07 06 01*', 0.342], ['R12', '07 06 01*', 8.58], ['R12', '07 06 01*', 0.065], ['R12', '07 06 03*', 0.621], ['R12', '07 06 04*', 32.2], ['R12', '07 06 04*', 0.286], ['R12', '07 06 08*', 71.0], ['R12', '07 06 10*', 1.07], ['R12', '07 07 03*', 0.282], ['R12', '07 07 04*', 0.798], ['R12', '07 07 04*', 0.041], ['R12', '07 07 04*', 0.049], ['R12', '07 07 04*', 2.01], ['R12', '07 07 04*', 2.87], ['R12', '07 07 07*', 4.15], ['R12', '07 07 08*', 1.8], ['R12', '08 01 11*', 0.099], ['R12', '08 01 11*', 0.534], ['R12', '08 01 11*', 6.43], ['R12', '08 01 11*', 1.47], ['R12', '08 01 11*', 5.46], ['R12', '08 01 11*', 2.25], ['R12', '08 01 11*', 10.8], ['R12', '08 01 11*', 1.83], ['R12', '08 01 11*', 0.154], ['R12', '08 01 11*', 3.85], ['R12', '08 01 11*', 3.57], ['R12', '08 01 11*', 22.4], ['R12', '08 01 11*', 0.716], ['R12', '08 01 11*', 0.858], ['R12', '08 01 11*', 172.0], ['R12', '08 01 11*', 12.5], ['R12', '08 01 11*', 41.7], ['R12', '08 01 11*', 3.55], ['R12', '08 01 11*', 5.16], ['R12', '08 01 13*', 0.359], ['R12', '08 01 13*', 0.931], ['R12', '08 01 15*', 0.071], ['R12', '08 01 17*', 0.788], ['R12', '08 01 21*', 0.028], ['R12', '08 01 21*', 0.568], ['R12', '08 03 12*', 0.304], ['R12', '08 03 17*', 0.17], ['R12', '08 03 17*', 0.093], ['R12', '08 03 17*', 0.2], ['R12', '08 03 17*', 0.173], ['R12', '08 03 17*', 0.008], ['R12', '08 03 17*', 0.145], ['R12', '08 03 17*', 0.056], ['R12', '08 03 17*', 1.54], ['R12', '08 04 09*', 0.232], ['R12', '08 05 01*', 1.09], ['R12', '11 01 05*', 1.95], ['R12', '11 01 05*', 0.551], ['R12', '11 01 06*', 0.149], ['R12', '11 01 09*', 0.994], ['R12', '11 01 11*', 16.6], ['R12', '11 01 11*', 0.959], ['R12', '11 01 16*', 0.205], ['R12', '11 01 16*', 0.066], ['R12', '11 01 98*', 4.1], ['R12', '11 01 98*', 0.348], ['R12', '11 01 98*', 0.123], ['R12', '11 03 02*', 5.9], ['R12', '12 01 07*', 2.34], ['R12', '12 01 09*', 3.6], ['R12', '12 01 09*', 0.146], ['R12', '12 01 09*', 0.128], ['R12', '12 01 12*', 0.289], ['R12', '12 01 12*', 5.76], ['R12', '12 01 12*', 0.022], ['R12', '12 01 14*', 11.8], ['R12', '12 01 14*', 2.77], ['R12', '12 01 14*', 1.46], ['R12', '12 01 14*', 5.23], ['R12', '12 01 14*', 2.84], ['R12', '12 01 16*', 15.9], ['R12', '12 01 16*', 1.51], ['R12', '12 01 16*', 5.03], ['R12', '12 01 16*', 1.71], ['R12', '12 01 16*', 4.85], ['R12', '12 01 16*', 2.36], ['R12', '12 01 18*', 1.32], ['R12', '12 01 20*', 0.018], ['R12', '12 01 20*', 0.655], ['R12', '13 01 05*', 0.595], ['R12', '13 01 09*', 2.21], ['R12', '13 01 10*', 4.12], ['R12', '13 01 10*', 0.548], ['R12', '13 01 10*', 9.37], ['R12', '13 01 10*', 1.99], ['R12', '13 01 10*', 0.111], ['R12', '13 01 10*', 1.33], ['R12', '13 01 10*', 1.53], ['R12', '13 01 13*', 1.04], ['R12', '13 01 13*', 0.722], ['R12', '13 01 13*', 0.405], ['R12', '13 01 13*', 0.603], ['R12', '13 02 05*', 0.182], ['R12', '13 02 05*', 0.034], ['R12', '13 02 05*', 0.0], ['R12', '13 02 05*', 4.84], ['R12', '13 02 05*', 0.299], ['R12', '13 02 06*', 0.112], ['R12', '13 02 07*', 0.181], ['R12', '13 02 08*', 0.49], ['R12', '13 02 08*', 0.119], ['R12', '13 02 08*', 0.813], ['R12', '13 02 08*', 7.35], ['R12', '13 03 10*', 2.68], ['R12', '13 03 10*', 0.655], ['R12', '13 03 10*', 0.095], ['R12', '13 05 06*', 0.011], ['R12', '13 07 01*', 3.24], ['R12', '13 07 03*', 2.29], ['R12', '13 07 03*', 0.698], ['R12', '13 07 03*', 0.975], ['R12', '13 08 02*', 2.96], ['R12', '13 08 02*', 0.866], ['R12', '13 08 02*', 0.043], ['R12', '13 08 99*', 0.257], ['R12', '13 08 99*', 0.224], ['R12', '13 08 99*', 0.284], ['R12', '14 06 02*', 0.137], ['R12', '14 06 02*', 0.103], ['R12', '14 06 03*', 0.362], ['R12', '14 06 03*', 0.966], ['R12', '14 06 03*', 0.104], ['R12', '14 06 03*', 1.18], ['R12', '14 06 03*', 1.38], ['R12', '14 06 03*', 0.824], ['R12', '14 06 03*', 2.32], ['R12', '14 06 03*', 4.63], ['R12', '14 06 03*', 1.55], ['R12', '14 06 03*', 1.41], ['R12', '14 06 03*', 1.15], ['R12', '14 06 03*', 1.51], ['R12', '14 06 03*', 8.67], ['R12', '14 06 03*', 1.15], ['R12', '14 06 03*', 3.66], ['R12', '15 01 10*', 0.058], ['R12', '15 01 10*', 44.4], ['R12', '15 01 10*', 21.7], ['R12', '15 01 10*', 98.6], ['R12', '15 01 10*', 0.102], ['R12', '15 01 10*', 0.336], ['R12', '15 01 10*', 6.63], ['R12', '15 01 10*', 9.78], ['R12', '15 01 10*', 13.6], ['R12', '15 01 10*', 17.3], ['R12', '15 01 10*', 49.4], ['R12', '15 01 10*', 7.79], ['R12', '15 01 10*', 6.05], ['R12', '15 01 10*', 6.22], ['R12', '15 01 10*', 1.33], ['R12', '15 01 10*', 16.1], ['R12', '15 01 10*', 38.2], ['R12', '15 01 10*', 32.3], ['R12', '15 01 10*', 23.6], ['R12', '15 01 10*', 70.9], ['R12', '15 01 10*', 7.9], ['R12', '15 01 10*', 2.42], ['R12', '15 01 10*', 42.5], ['R12', '15 01 10*', 55.8], ['R12', '15 01 10*', 27.0], ['R12', '15 01 10*', 23.5], ['R12', '15 01 10*', 6.01], ['R12', '15 01 11*', 0.21], ['R12', '15 02 02*', 0.647], ['R12', '15 02 02*', 11.1], ['R12', '15 02 02*', 24.2], ['R12', '15 02 02*', 0.369], ['R12', '15 02 02*', 3.21], ['R12', '15 02 02*', 0.266], ['R12', '15 02 02*', 1.99], ['R12', '15 02 02*', 8.59], ['R12', '15 02 02*', 42.8], ['R12', '15 02 02*', 4.3], ['R12', '15 02 02*', 1.64], ['R12', '15 02 02*', 15.9], ['R12', '15 02 02*', 1.37], ['R12', '15 02 02*', 2.04], ['R12', '15 02 02*', 13.4], ['R12', '15 02 02*', 1.45], ['R12', '15 02 02*', 33.5], ['R12', '15 02 02*', 21.4], ['R12', '15 02 02*', 43.0], ['R12', '15 02 02*', 2.28], ['R12', '15 02 02*', 1.97], ['R12', '16 01 07*', 0.157], ['R12', '16 01 07*', 0.261], ['R12', '16 01 07*', 0.207], ['R12', '16 01 07*', 3.47], ['R12', '16 01 07*', 0.082], ['R12', '16 01 07*', 0.157], ['R12', '16 01 14*', 3.58], ['R12', '16 01 14*', 1.6], ['R12', '16 01 14*', 1.73], ['R12', '16 02 13*', 0.402], ['R12', '16 02 13*', 0.282], ['R12', '16 02 13*', 2.39], ['R12', '16 02 13*', 1.81], ['R12', '16 02 13*', 5.03], ['R12', '16 02 13*', 1.59], ['R12', '16 02 13*', 6.15], ['R12', '16 02 13*', 13.1], ['R12', '16 02 13*', 7.84], ['R12', '16 02 13*', 2.63], ['R12', '16 02 13*', 5.93], ['R12', '16 02 15*', 0.49], ['R12', '16 02 15*', 0.069], ['R12', '16 02 15*', 0.491], ['R12', '16 03 03*', 0.411], ['R12', '16 03 03*', 8.39], ['R12', '16 03 03*', 5.29], ['R12', '16 03 03*', 0.01], ['R12', '16 03 03*', 0.704], ['R12', '16 03 03*', 2.95], ['R12', '16 03 03*', 2.41], ['R12', '16 03 03*', 4.34], ['R12', '16 03 05*', 0.142], ['R12', '16 03 05*', 1.46], ['R12', '16 03 05*', 4.13], ['R12', '16 03 05*', 0.076], ['R12', '16 03 05*', 1.46], ['R12', '16 03 05*', 2.23], ['R12', '16 03 05*', 2.59], ['R12', '16 03 05*', 10.1], ['R12', '16 03 05*', 1.15], ['R12', '16 03 05*', 6.52], ['R12', '16 03 05*', 0.591], ['R12', '16 03 05*', 0.311], ['R12', '16 03 05*', 0.111], ['R12', '16 03 05*', 0.57], ['R12', '16 03 05*', 1.2], ['R12', '16 05 04*', 0.251], ['R12', '16 05 04*', 6.11], ['R12', '16 05 04*', 1.2], ['R12', '16 05 04*', 0.314], ['R12', '16 05 04*', 0.035], ['R12', '16 05 04*', 0.019], ['R12', '16 05 04*', 0.685], ['R12', '16 05 04*', 0.838], ['R12', '16 05 04*', 0.011], ['R12', '16 05 04*', 0.98], ['R12', '16 05 04*', 0.367], ['R12', '16 05 04*', 0.019], ['R12', '16 05 04*', 4.28], ['R12', '16 05 04*', 5.26], ['R12', '16 05 04*', 1.15], ['R12', '16 05 04*', 1.24], ['R12', '16 05 04*', 5.05], ['R12', '16 05 04*', 0.256], ['R12', '16 05 04*', 2.05], ['R12', '16 05 04*', 0.064], ['R12', '16 05 06*', 9.36], ['R12', '16 05 06*', 4.51], ['R12', '16 05 06*', 0.102], ['R12', '16 05 06*', 0.329], ['R12', '16 05 06*', 4.04], ['R12', '16 05 06*', 0.729], ['R12', '16 05 06*', 0.976], ['R12', '16 05 06*', 0.029], ['R12', '16 05 06*', 1.75], ['R12', '16 05 06*', 3.09], ['R12', '16 05 06*', 8.93], ['R12', '16 05 06*', 1.96], ['R12', '16 05 06*', 9.8], ['R12', '16 05 06*', 2.31], ['R12', '16 05 06*', 0.442], ['R12', '16 05 06*', 0.547], ['R12', '16 05 06*', 0.422], ['R12', '16 05 07*', 1.07], ['R12', '16 05 07*', 4.78], ['R12', '16 05 07*', 1.83], ['R12', '16 05 07*', 0.397], ['R12', '16 05 07*', 4.17], ['R12', '16 05 07*', 5.15], ['R12', '16 05 07*', 0.172], ['R12', '16 05 07*', 2.23], ['R12', '16 05 07*', 0.257], ['R12', '16 05 07*', 1.5], ['R12', '16 05 07*', 9.32], ['R12', '16 05 07*', 0.023], ['R12', '16 05 07*', 0.46], ['R12', '16 05 08*', 1.05], ['R12', '16 05 08*', 1.73], ['R12', '16 05 08*', 5.41], ['R12', '16 05 08*', 2.36], ['R12', '16 05 08*', 0.245], ['R12', '16 05 08*', 0.044], ['R12', '16 05 08*', 2.88], ['R12', '16 05 08*', 2.37], ['R12', '16 05 08*', 1.9], ['R12', '16 05 08*', 0.959], ['R12', '16 05 08*', 0.082], ['R12', '16 05 08*', 9.74], ['R12', '16 05 08*', 10.4], ['R12', '16 05 08*', 1.99], ['R12', '16 05 08*', 1.53], ['R12', '16 05 08*', 1.57], ['R12', '16 06 01*', 0.094], ['R12', '16 06 01*', 0.027], ['R12', '16 06 01*', 0.066], ['R12', '16 06 01*', 1.08], ['R12', '16 06 01*', 1.11], ['R12', '16 06 01*', 0.394], ['R12', '16 06 01*', 5.71], ['R12', '16 06 01*', 1.25], ['R12', '16 06 01*', 0.036], ['R12', '16 06 02*', 3.2], ['R12', '16 06 02*', 0.023], ['R12', '16 06 02*', 0.063], ['R12', '16 06 02*', 0.056], ['R12', '16 06 03*', 1.6], ['R12', '16 06 06*', 0.21], ['R12', '16 06 06*', 0.54], ['R12', '16 06 06*', 0.681], ['R12', '16 06 06*', 0.527], ['R12', '16 07 08*', 3.0], ['R12', '16 07 09*', 2.35], ['R12', '16 10 01*', 2.91], ['R12', '16 10 01*', 0.413], ['R12', '16 10 01*', 0.108], ['R12', '16 10 01*', 1.62], ['R12', '16 10 01*', 6.25], ['R12', '16 10 01*', 0.145], ['R12', '17 03 03*', 0.455], ['R12', '17 03 03*', 0.117], ['R12', '17 03 03*', 0.397], ['R12', '17 03 03*', 0.374], ['R12', '17 03 03*', 0.123], ['R12', '17 03 03*', 3.19], ['R12', '17 03 03*', 0.305], ['R12', '17 03 03*', 0.782], ['R12', '17 03 03*', 0.217], ['R12', '17 05 03*', 0.2], ['R12', '17 09 03*', 0.454], ['R12', '17 09 03*', 0.472], ['R12', '17 09 03*', 1.77], ['R12', '18 01 06*', 0.27], ['R12', '18 01 06*', 0.018], ['R12', '18 01 06*', 0.013], ['R12', '18 01 06*', 2.34], ['R12', '18 01 06*', 1.26], ['R12', '18 01 08*', 0.009], ['R12', '18 01 08*', 0.064], ['R12', '19 02 05*', 0.543], ['R12', '20 01 13*', 0.617], ['R12', '20 01 13*', 0.657], ['R12', '20 01 13*', 2.87], ['R12', '20 01 13*', 0.218], ['R12', '20 01 14*', 2.7], ['R12', '20 01 14*', 0.068], ['R12', '20 01 14*', 0.005], ['R12', '20 01 14*', 1.81], ['R12', '20 01 14*', 0.546], ['R12', '20 01 15*', 1.4], ['R12', '20 01 15*', 0.04], ['R12', '20 01 15*', 0.04], ['R12', '20 01 15*', 1.35], ['R12', '20 01 15*', 0.275], ['R12', '20 01 15*', 0.627], ['R12', '20 01 15*', 1.01], ['R12', '20 01 19*', 0.39], ['R12', '20 01 21*', 0.67], ['R12', '20 01 21*', 0.042], ['R12', '20 01 21*', 0.317], ['R12', '20 01 21*', 0.01], ['R12', '20 01 21*', 0.061], ['R12', '20 01 21*', 0.019], ['R12', '20 01 21*', 0.188], ['R12', '20 01 21*', 0.201], ['R12', '20 01 21*', 0.293], ['R12', '20 01 21*', 0.351], ['R12', '20 01 21*', 3.52], ['R12', '20 01 21*', 0.308], ['R12', '20 01 21*', 0.03], ['R12', '20 01 21*', 0.942], ['R12', '20 01 21*', 2.05], ['R12', '20 01 21*', 4.91], ['R12', '20 01 21*', 0.111], ['R12', '20 01 21*', 0.216], ['R12', '20 01 26*', 2.19], ['R12', '20 01 27*', 0.046], ['R12', '20 01 27*', 0.104], ['R12', '20 01 27*', 1.22], ['R12', '20 01 27*', 16.2], ['R12', '20 01 29*', 1.16], ['R12', '20 01 31*', 0.11], ['R12', '20 01 33*', 0.546], ['R12', '20 01 33*', 0.005], ['R12', '20 01 33*', 0.03], ['R12', '20 01 33*', 0.012], ['R12', '20 01 33*', 0.201], ['R12', '20 01 33*', 0.754], ['R12', '20 01 33*', 0.523], ['R12', '20 01 33*', 0.1], ['R12', '20 01 33*', 0.231], ['R12', '20 01 33*', 0.629], ['R12', '20 01 33*', 0.056], ['R12', '20 01 33*', 0.325], ['R12', '20 01 33*', 0.089], ['R12', '20 01 33*', 0.042], ['R12', '20 01 33*', 0.828], ['R12', '20 01 33*', 0.107], ['R12', '20 01 33*', 0.09], ['R12', '20 01 35*', 0.163], ['R12', '20 01 35*', 0.506], ['R12', '20 01 35*', 1.41], ['R12', '20 01 35*', 0.273], ['R12', '20 01 35*', 0.259], ['R12', '20 01 35*', 0.881], ['R12', '20 01 35*', 1.1], ['R12', '20 01 35*', 0.217], ['R12', '20 01 35*', 49.3], ['R12', '20 01 35*', 0.914], ['R12', '20 01 35*', 2.19], ['R12', '20 01 35*', 0.153], ['R12', '20 01 35*', 0.816], ['R12', '20 01 35*', 10.1], ['R13', '05 01 08*', 0.323], ['R13', '06 01 04*', 2.81], ['R13', '06 01 06*', 10.1], ['R13', '06 01 06*', 0.198], ['R13', '06 01 06*', 0.272], ['R13', '06 02 05*', 0.048], ['R13', '06 02 05*', 0.057], ['R13', '06 02 05*', 0.144], ['R13', '06 02 05*', 1.44], ['R13', '06 02 05*', 11.0], ['R13', '06 02 05*', 0.187], ['R13', '06 02 05*', 0.701], ['R13', '06 03 13*', 0.428], ['R13', '06 04 05*', 0.011], ['R13', '07 01 01*', 0.034], ['R13', '07 01 03*', 0.81], ['R13', '07 01 03*', 0.069], ['R13', '07 01 03*', 0.02], ['R13', '07 01 03*', 0.487], ['R13', '07 01 03*', 11.0], ['R13', '07 01 03*', 0.049], ['R13', '07 01 03*', 0.315], ['R13', '07 01 03*', 0.636], ['R13', '07 01 03*', 3.34], ['R13', '07 01 03*', 7.42], ['R13', '07 01 03*', 0.399], ['R13', '07 01 03*', 0.896], ['R13', '07 01 03*', 1.08], ['R13', '07 01 03*', 0.553], ['R13', '07 01 03*', 0.7], ['R13', '07 01 04*', 2.93], ['R13', '07 01 04*', 0.15], ['R13', '07 01 04*', 3.49], ['R13', '07 01 04*', 0.142], ['R13', '07 01 04*', 0.383], ['R13', '07 01 04*', 18.0], ['R13', '07 01 04*', 0.043], ['R13', '07 01 04*', 0.077], ['R13', '07 01 04*', 1.76], ['R13', '07 01 04*', 4.69], ['R13', '07 01 04*', 0.474], ['R13', '07 01 04*', 18.4], ['R13', '07 01 04*', 0.933], ['R13', '07 01 04*', 0.773], ['R13', '07 01 04*', 0.03], ['R13', '07 01 04*', 0.347], ['R13', '07 01 07*', 0.009], ['R13', '07 04 01*', 4.51], ['R13', '07 05 01*', 0.318], ['R13', '07 05 03*', 0.075], ['R13', '07 05 03*', 0.389], ['R13', '07 05 03*', 0.582], ['R13', '07 05 03*', 0.085], ['R13', '07 05 03*', 1.95], ['R13', '07 05 03*', 0.042], ['R13', '07 05 03*', 0.091], ['R13', '07 05 04*', 0.431], ['R13', '07 05 04*', 8.22], ['R13', '07 05 04*', 0.67], ['R13', '07 05 04*', 1.01], ['R13', '07 05 04*', 7.08], ['R13', '07 05 04*', 0.69], ['R13', '07 05 04*', 1.68], ['R13', '07 05 13*', 0.083], ['R13', '07 05 13*', 0.881], ['R13', '07 06 01*', 8.78], ['R13', '07 06 03*', 1.98], ['R13', '07 06 04*', 18.2], ['R13', '07 06 04*', 0.116], ['R13', '07 07 03*', 0.655], ['R13', '07 07 03*', 0.029], ['R13', '07 07 03*', 10.6], ['R13', '07 07 03*', 0.086], ['R13', '07 07 03*', 0.572], ['R13', '07 07 03*', 0.035], ['R13', '07 07 03*', 0.128], ['R13', '07 07 04*', 0.22], ['R13', '07 07 04*', 0.097], ['R13', '07 07 04*', 16.3], ['R13', '07 07 07*', 7.77], ['R13', '08 01 11*', 0.075], ['R13', '08 01 11*', 0.407], ['R13', '08 01 11*', 9.23], ['R13', '08 01 11*', 0.949], ['R13', '08 01 13*', 0.886], ['R13', '08 01 13*', 1.08], ['R13', '08 05 01*', 0.051], ['R13', '09 01 01*', 0.276], ['R13', '09 01 04*', 0.06], ['R13', '09 01 04*', 0.218], ['R13', '11 01 05*', 2.74], ['R13', '11 01 07*', 0.452], ['R13', '11 01 07*', 0.593], ['R13', '11 01 13*', 8.74], ['R13', '12 01 07*', 6.29], ['R13', '12 01 07*', 0.874], ['R13', '12 01 07*', 0.164], ['R13', '12 03 01*', 0.058], ['R13', '13 01 05*', 0.01], ['R13', '13 01 05*', 0.487], ['R13', '13 01 10*', 1.1], ['R13', '13 01 10*', 0.216], ['R13', '13 01 13*', 5.12], ['R13', '13 01 13*', 4.43], ['R13', '13 01 13*', 0.192], ['R13', '13 01 13*', 0.53], ['R13', '13 02 04*', 0.06], ['R13', '13 02 05*', 1.87], ['R13', '13 02 05*', 0.193], ['R13', '13 02 05*', 0.066], ['R13', '13 02 05*', 0.07], ['R13', '13 02 05*', 0.283], ['R13', '13 02 07*', 1.45], ['R13', '13 02 08*', 0.091], ['R13', '13 02 08*', 0.22], ['R13', '13 02 08*', 9.55], ['R13', '13 02 08*', 0.005], ['R13', '13 03 10*', 1.83], ['R13', '13 07 01*', 0.143], ['R13', '13 08 02*', 0.182], ['R13', '13 08 02*', 1.32], ['R13', '13 08 99*', 0.431], ['R13', '13 08 99*', 6.41], ['R13', '14 06 02*', 8.71], ['R13', '14 06 02*', 0.931], ['R13', '14 06 02*', 3.67], ['R13', '14 06 02*', 0.105], ['R13', '14 06 02*', 4.7], ['R13', '14 06 02*', 0.255], ['R13', '14 06 02*', 5.12], ['R13', '14 06 02*', 0.359], ['R13', '14 06 02*', 0.04], ['R13', '14 06 02*', 0.105], ['R13', '14 06 03*', 2.94], ['R13', '14 06 03*', 1.11], ['R13', '14 06 03*', 1.78], ['R13', '14 06 03*', 10.5], ['R13', '14 06 03*', 0.169], ['R13', '14 06 03*', 11.3], ['R13', '14 06 03*', 2.72], ['R13', '14 06 03*', 30.3], ['R13', '14 06 03*', 7.62], ['R13', '14 06 03*', 4.5], ['R13', '15 01 10*', 0.606], ['R13', '15 01 10*', 0.523], ['R13', '15 01 10*', 0.718], ['R13', '15 01 10*', 0.028], ['R13', '15 01 10*', 0.142], ['R13', '15 01 10*', 0.084], ['R13', '15 01 10*', 2.06], ['R13', '15 01 10*', 0.207], ['R13', '15 01 10*', 0.713], ['R13', '15 01 10*', 0.041], ['R13', '15 02 02*', 0.256], ['R13', '15 02 02*', 0.292], ['R13', '15 02 02*', 0.111], ['R13', '15 02 02*', 0.018], ['R13', '16 01 14*', 4.43], ['R13', '16 01 14*', 0.04], ['R13', '16 01 14*', 7.94], ['R13', '16 01 21*', 0.404], ['R13', '16 01 21*', 0.248], ['R13', '16 02 13*', 0.626], ['R13', '16 02 13*', 0.964], ['R13', '16 02 13*', 0.13], ['R13', '16 03 03*', 1.61], ['R13', '16 03 05*', 2.28], ['R13', '16 03 05*', 7.82], ['R13', '16 03 05*', 3.05], ['R13', '16 03 05*', 3.02], ['R13', '16 03 05*', 11.8], ['R13', '16 03 05*', 2.51], ['R13', '16 03 05*', 0.824], ['R13', '16 03 05*', 1.11], ['R13', '16 05 04*', 0.06], ['R13', '16 05 06*', 1.25], ['R13', '16 05 06*', 9.61], ['R13', '16 05 06*', 1.86], ['R13', '16 05 06*', 0.405], ['R13', '16 05 06*', 3.6], ['R13', '16 05 06*', 0.7], ['R13', '16 05 06*', 2.62], ['R13', '16 05 06*', 7.07], ['R13', '16 05 06*', 0.114], ['R13', '16 05 07*', 1.92], ['R13', '16 05 07*', 0.438], ['R13', '16 05 07*', 0.126], ['R13', '16 05 07*', 0.121], ['R13', '16 05 07*', 2.29], ['R13', '16 05 08*', 1.9], ['R13', '16 05 08*', 3.81], ['R13', '16 05 08*', 1.15], ['R13', '16 05 08*', 2.46], ['R13', '16 05 08*', 6.86], ['R13', '16 05 08*', 2.82], ['R13', '16 05 08*', 0.741], ['R13', '16 05 08*', 1.15], ['R13', '16 05 08*', 35.7], ['R13', '16 05 08*', 0.202], ['R13', '16 05 08*', 5.91], ['R13', '16 05 08*', 0.136], ['R13', '16 06 01*', 0.156], ['R13', '16 06 03*', 0.624], ['R13', '16 06 06*', 0.053], ['R13', '16 10 01*', 0.167], ['R13', '16 10 01*', 18.0], ['R13', '16 10 01*', 0.134], ['R13', '16 10 01*', 0.423], ['R13', '16 10 01*', 0.08], ['R13', '18 01 06*', 0.688], ['R13', '18 01 06*', 0.197], ['R13', '18 01 06*', 0.66], ['R13', '18 01 06*', 4.42], ['R13', '20 01 13*', 4.94], ['R13', '20 01 13*', 0.01], ['R13', '20 01 13*', 0.024], ['R13', '20 01 13*', 0.021], ['R13', '20 01 13*', 1.07], ['R13', '20 01 13*', 0.346], ['R13', '20 01 14*', 0.013], ['R13', '20 01 14*', 80.7], ['R13', '20 01 19*', 0.15], ['R13', '20 01 19*', 0.117], ['R13', '20 01 21*', 0.279], ['R13', '20 01 21*', 0.489], ['R13', '20 01 21*', 0.031], ['R13', '20 01 33*', 0.014], ['R13', '20 01 33*', 0.047], ['R13', '20 01 35*', 0.147], ['R13', '20 01 35*', 42.0], ['R13', '20 01 35*', 0.648]]",./0.png
2.22008192340744,48.9499959899103,"6514903",PROSERVE DASRI (ex TRADEHOS),"4,94E+13",13 RUE GUY MOCQUET,"95100",ARGENTEUIL,"48.94999598991027","2.220081923407438","2154.0",3822Z,Traitement et Ã©limination des dÃ©chets dangereux,5.(a),Installations pour la valorisation ou l'Ã©limination des dÃ©chets dangereux recevant 10 tonnes par jour,[],[],[],[],"[['D10', '18 01 03*', 1010.0], ['R13', '18 01 08*', 7.1]]",./0.png
2.28532307907521,48.94881093464,"6516036",SOLVALOR,"7,88E+13","31-34, route du bassin nÂ°6","92230",GENNEVILLIERS,"48.94881093463998","2.285323079075213","2154.0",3822Z,Traitement et Ã©limination des dÃ©chets dangereux,5.(c),Installations destinÃ©es Ã  l'Ã©limination des dÃ©chets non dangereux d'une capacitÃ© de 50 tonnes par jour,[],"[['R5 ', '17 01 01', 1390.0], ['R5 ', '17 05 04', 130507.0], ['R5 ', '17 05 04', 634.0], ['R5 ', '17 05 04', 33600.0], ['R5 ', '17 05 04', 293.0], ['R5 ', '17 05 04', 55275.3]]","[['R5 ', '17 01 01', 42.1], ['R5 ', '17 01 01', 105.0], ['R5 ', '17 01 07', 23.6], ['R5 ', '17 05 04', 147.0], ['R5 ', '17 05 04', 2.42], ['R5 ', '17 05 04', 112.0], ['R5 ', '17 05 04', 101.0], ['R5 ', '17 05 04', 2800.0], ['R5 ', '17 05 04', 34600.0], ['R5 ', '17 05 04', 8770.0], ['R5 ', '17 05 04', 15100.0], ['R5 ', '17 05 04', 3480.0], ['R5 ', '17 05 04', 37900.0], ['R5 ', '17 05 04', 76500.0], ['R5 ', '17 05 04', 12600.0], ['R5 ', '17 05 04', 21500.0], ['R5 ', '17 05 06', 991.0], ['R5 ', '17 05 06', 114.0], ['R5 ', '17 05 06', 163.0], ['R5 ', '17 09 04', 29.0], ['R5 ', '17 09 04', 84.5], ['R5 ', '17 09 04', 1550.0], ['R5 ', '17 09 04', 76.5], ['R5 ', '19 08 02', 200.0]]","[['R5 ', '17 05 03*', 6660.0], ['R5 ', '17 05 05*', 293.0]]","[['R5 ', '17 05 03*', 7630.0], ['R5 ', '17 05 03*', 230.0], ['R5 ', '17 05 03*', 1110.0], ['R5 ', '17 05 03*', 8.0], ['R5 ', '17 05 05*', 99.5], ['R5 ', '17 05 05*', 85.7], ['R5 ', '17 05 05*', 783.0], ['R5 ', '17 05 05*', 7.48], ['R5 ', '17 05 05*', 17.7], ['R5 ', '19 13 01*', 493.0]]",./0.png
2.28266863652955,48.9452608964066,"6520744",SARPI MINERAL France,"3,22E+13",17-21 route de la Seine,"92230",GENNEVILLIERS,"48.9452608964066","2.2826686365295523","4326.0",3822Z,Traitement et Ã©limination des dÃ©chets dangereux,5.(a),Installations pour la valorisation ou l'Ã©limination des dÃ©chets dangereux recevant 10 tonnes par jour,[],"[['R4 ', '16 01 17', 3.5], ['R5 ', '17 01 01', 974.0], ['R5 ', '17 05 04', 509.0], ['R5 ', '17 05 04', 10300.0], ['R5 ', '17 05 04', 11700.0], ['R5 ', '17 05 04', 1478.0], ['R5 ', '17 05 04', 6950.0], ['R5 ', '17 05 04', 43.0], ['R5 ', '17 05 04', 818.0], ['R5 ', '17 05 04', 2188.0], ['R5 ', '19 12 04', 0.08], ['R5 ', '20 01 01', 0.55], ['R5 ', '20 03 01', 6.43]]","[['R12', '17 01 01', 38.1], ['R12', '17 05 04', 849.0], ['R12', '17 05 04', 591.0], ['R12', '17 05 04', 637.0], ['R12', '17 05 04', 1510.0], ['R12', '17 05 04', 3760.0], ['R12', '17 05 04', 1100.0], ['R12', '17 05 04', 5140.0], ['R12', '17 05 04', 1250.0], ['R12', '17 05 04', 6090.0], ['R12', '17 05 04', 5640.0], ['R12', '17 05 04', 4260.0], ['R12', '17 05 04', 1160.0], ['R12', '17 09 04', 63.5], ['R12', '19 13 02', 23.7]]","[['D10', '17 05 03*', 1090.0], ['D5 ', '17 05 03*', 1390.0], ['R5 ', '13 05 07*', 4.0]]","[['R12', '17 05 03*', 5830.0], ['R12', '17 05 03*', 188.0]]",./0.png
2.28530707874216,48.9489817027908,"6515495",REVIVAL,"6,17E+13","38-40, route du Bassin nÂ° 6","92230",GENNEVILLIERS,"48.94898170279081","2.285307078742157","2154.0",3831Z,DÃ©mantÃ¨lement d'Ã©paves,,,[],[],[],"[['D10', '16 02 09*', 2.0], ['D10', '16 02 09*', 3.6], ['R4 ', '16 02 10*', 4.38], ['R4 ', '16 02 11*', 4.98], ['R4 ', '16 02 13*', 3.98], ['R4 ', '16 02 13*', 3.9], ['R4 ', '20 01 23*', 4.98]]","[['R13', '16 02 10*', 5.28], ['R13', '16 02 11*', 5.24], ['R13', '16 02 13*', 1.68], ['R13', '16 02 13*', 49.8], ['R13', '16 02 13*', 43.4], ['R13', '20 01 35*', 44.3], ['R13', '20 01 35*', 60.2], ['R13', '20 01 35*', 462.0], ['R13', '20 01 35*', 46.1], ['R13', '20 01 35*', 12400.0], ['R13', '20 01 35*', 119.0]]",./0.png
2.181667935206,48.8965274842402,"7405799",REVIVAL,"5,52E+13",50 AVENUE DES GUILLERAIES,"92000",NANTERRE,"48.89652748424016","2.181667935206002","2154.0",3832Z,RÃ©cupÃ©ration de dÃ©chets triÃ©s,,,[],[],"[['R4 ', '20 01 36', 146.0], ['R4 ', '20 01 36', 37.5], ['R4 ', '20 01 36', 11.9]]","[['D9 ', '13 05 08*', 10.6], ['R4 ', '16 06 01*', 226.4], ['R4 ', '16 06 01*', 144.1], ['R4 ', '16 06 01*', 23.6], ['R4 ', '20 01 23*', 91.98], ['R4 ', '20 01 35*', 179.1]]","[['R13', '16 06 01*', 4.19], ['R13', '16 06 01*', 0.015], ['R13', '16 06 01*', 408.0], ['R13', '16 06 01*', 1.36], ['R4 ', '20 01 23*', 92.0], ['R4 ', '20 01 35*', 179.0]]",./0.png
2.28626953599259,48.9405341564507,"6514660",REVIVAL,"6,17E+13",3/5 route du mole central,"92230",GENNEVILLIERS,"48.94053415645073","2.2862695359925937","2154.0",3832Z,RÃ©cupÃ©ration de dÃ©chets triÃ©s,5.(c),Installations destinÃ©es Ã  l'Ã©limination des dÃ©chets non dangereux d'une capacitÃ© de 50 tonnes par jour,[],[],[],"[['R13', '13 02 06*', 6.98], ['R13', '15 02 02*', 0.2], ['R13', '16 01 21*', 0.3], ['R13', '16 06 01*', 71.6], ['R4 ', '16 05 04*', 0.54], ['R4 ', '16 06 01*', 388.0], ['R4 ', '16 08 07*', 0.435], ['R4 ', '16 08 07*', 0.12], ['R4 ', '20 01 23*', 0.98], ['R4 ', '20 01 23*', 127.0], ['R4 ', '20 01 35*', 12112.1], ['R5 ', '13 05 08*', 27.0]]","[['R13', '16 06 01*', 0.38], ['R13', '16 06 01*', 1.28], ['R13', '16 06 01*', 9.04], ['R13', '16 06 01*', 3.4], ['R13', '16 06 01*', 194.0], ['R13', '16 06 01*', 0.76], ['R13', '16 06 01*', 7.42], ['R13', '16 06 01*', 50.3], ['R4 ', '16 01 04*', 1.0], ['R4 ', '16 01 04*', 4.18], ['R4 ', '16 01 04*', 3.89], ['R4 ', '16 01 04*', 375.0], ['R4 ', '16 01 04*', 18.3], ['R4 ', '16 01 04*', 21.1]]",./0.png
2.24138476745328,48.9535589547429,"6505388",REVIVAL,"3,78E+13","127, avenue de Verdun","95100",ARGENTEUIL,"48.95355895474289","2.241384767453283","2154.0",3832Z,RÃ©cupÃ©ration de dÃ©chets triÃ©s,,,[],[],[],"[['R4 ', '16 06 01*', 162.3], ['R4 ', '16 06 01*', 23.9], ['R4 ', '20 01 23*', 99.0], ['R4 ', '20 01 35*', 194.94], ['R5 ', '13 05 08*', 5.3]]","[['R13', '16 06 01*', 2.78], ['R13', '16 06 01*', 0.84], ['R13', '16 06 01*', 204.0]]",./0.png
2.2846996421362,48.9484744820862,"6517507",SERRE ANDRIEU,"5,82E+13",33 route du bassin nÂ°6,"92230",GENNEVILLIERS,"48.948474482086205","2.284699642136203","2154.0",3832Z,RÃ©cupÃ©ration de dÃ©chets triÃ©s,,,[],[],"[['R12', '17 09 04', 3350.0], ['R13', '15 01 01', 104.0], ['R13', '16 01 03', 64.0], ['R13', '17 02 01', 386.0], ['R4 ', '17 04 05', 21700.0], ['R4 ', '17 04 07', 1030.0]]","[['D13', '08 01 11*', 0.222], ['D13', '15 02 02*', 0.154], ['D13', '16 05 06*', 0.514], ['D9 ', '13 05 08*', 16.0], ['R13', '15 01 10*', 0.093], ['R13', '16 02 13*', 12.1], ['R13', '16 05 04*', 0.055], ['R13', '20 01 21*', 0.16], ['R4 ', '16 02 13*', 38.5], ['R4 ', '16 06 01*', 66.8], ['R9 ', '13 02 05*', 6.0]]","[['R13', '16 02 13*', 391.0], ['R13', '16 06 01*', 15.0]]",./0.png
2.28424144114457,48.9490293021192,"7410045",REVIVAL,"6,17E+13",38 RTE DU BASSIN NUMERO 6,"92230",GENNEVILLIERS,"48.94902930211919","2.2842414411445677","2154.0",3832Z,RÃ©cupÃ©ration de dÃ©chets triÃ©s,,,[],[],"[['R13', '12 01 01', 21.9], ['R13', '12 01 03', 232.0], ['R13', '17 04 01', 2070.0], ['R13', '17 04 02', 4350.0], ['R13', '17 04 03', 70.7], ['R13', '17 04 04', 1080.0], ['R13', '17 04 05', 1440.0], ['R13', '17 04 07', 908.0], ['R13', '17 04 11', 2560.0]]","[['R5 ', '13 05 08*', 46.0]]",[],./0.png
2.28093814954014,48.9440275000183,"7409451",REVIVAL,"6,17E+13",9 RTE DU MOLE CENTRAL,"92230",GENNEVILLIERS,"48.94402750001825","2.280938149540138","4326.0",3832Z,RÃ©cupÃ©ration de dÃ©chets triÃ©s,,,[],[],[],"[['D13', '13 05 07*', 1.4], ['R13', '16 06 01*', 5.44], ['R13', '16 08 07*', 0.04], ['R13', '20 01 35*', 12.1], ['R3 ', '16 07 08*', 15.6], ['R4 ', '16 05 04*', 0.35], ['R4 ', '16 06 01*', 45.5], ['R4 ', '20 01 35*', 0.1]]","[['R13', '16 06 01*', 0.189], ['R13', '16 06 01*', 4.99], ['R13', '16 06 01*', 0.007], ['R13', '16 06 01*', 30.4], ['R13', '16 06 01*', 0.013], ['R13', '16 06 01*', 4.02]]",./0.png
2.28337523870897,48.9484755653155,"6517644",MAZEAU RECYCLAGE SAS,"8,24E+13",35 route du bassin nÂ°6,"92230",GENNEVILLIERS,"48.9484755653155","2.2833752387089725","2154.0",3832Z,RÃ©cupÃ©ration de dÃ©chets triÃ©s,,,[],[],"[['R13', '17 04 05', 23.4], ['R13', '17 04 05', 202.0], ['R13', '17 04 05', 12.6], ['R13', '17 04 05', 57.9], ['R13', '17 04 05', 128.0], ['R13', '17 04 05', 385.0], ['R13', '17 04 05', 146.0], ['R13', '17 04 05', 134.0], ['R5 ', '17 01 01', 85.3], ['R5 ', '17 01 01', 938.0], ['R5 ', '17 01 01', 23.7], ['R5 ', '17 01 01', 22.9], ['R5 ', '17 01 01', 21500.0], ['R5 ', '17 01 01', 44.4], ['R5 ', '17 01 01', 2280.0], ['R5 ', '17 01 01', 1780.0], ['R5 ', '17 01 01', 40400.0], ['R5 ', '17 01 01', 11800.0], ['R5 ', '17 01 01', 675.0], ['R5 ', '17 01 01', 21200.0], ['R5 ', '17 04 01', 0.007], ['R5 ', '17 04 02', 0.035], ['R5 ', '17 04 02', 6.38], ['R5 ', '17 04 05', 52.6], ['R5 ', '17 04 05', 5.88], ['R5 ', '17 04 05', 31.8], ['R5 ', '17 04 05', 7.32], ['R5 ', '17 04 05', 411.0], ['R5 ', '17 04 05', 1440.0], ['R5 ', '17 04 05', 1030.0], ['R5 ', '17 04 05', 307.0], ['R5 ', '17 04 05', 2770.0], ['R5 ', '17 04 05', 3190.0], ['R5 ', '17 04 05', 1010.0], ['R5 ', '17 04 05', 3130.0], ['R5 ', '17 04 11', 0.44]]","[['R12', '13 05 02*', 24.0], ['R12', '13 05 07*', 38.7], ['R12', '15 01 10*', 0.88]]",[],./0.png
2.2268142016767,48.9297335038687,"6505480",A LA CASSE AUTO JJ (RUE D.CASANOVA),"5,14E+13","15, rue DaniÃ¨le Casanova","95870",BEZONS,"48.929733503868746","2.2268142016767","2154.0",4511Z,Commerce de voitures et de vÃ©hicules automobiles lÃ©gers,,,[],[],[],"[['R11', '16 06 01*', 2.0], ['R4 ', '16 08 07*', 2.0], ['R9 ', '13 02 06*', 1.0]]","[['R4 ', '16 01 04*', 329.0]]",./0.png
2.18237179464154,48.898609757312,"6506313",SHELL France,"7,80E+13",171 AV JULES QUENTIN USINE SUD,"92000",NANTERRE,"48.89860975731197","2.182371794641536","2154.0",4671Z,Commerce de gros (commerce interentreprises) de combustibles et de produits annexes,,,[],[],[],"[['D5 ', '17 01 06*', 0.06], ['D5 ', '17 04 09*', 2.8], ['D9 ', '06 01 02*', 4.58], ['R1 ', '06 02 04*', 5.2], ['R1 ', '08 03 17*', 0.068], ['R1 ', '13 02 08*', 53.3], ['R1 ', '15 01 10*', 231.0], ['R12', '13 02 08*', 22.0], ['R13', '15 02 02*', 6.2], ['R13', '16 02 13*', 0.99], ['R13', '16 05 04*', 0.062], ['R13', '20 01 21*', 0.099], ['R3 ', '13 07 01*', 4.28], ['R5 ', '13 05 06*', 1.0], ['R5 ', '13 05 08*', 21.6]]",[],./0.png
2.27604741184304,48.9462192988959,"6506288",TOTAL ENERGIES MARKETING FRANCE,"5,32E+13",23 A 25 ROUTE DE LA SEINE,"92230",GENNEVILLIERS,"48.94621929889595","2.2760474118430363","4326.0",4671Z,Commerce de gros (commerce interentreprises) de combustibles et de produits annexes,,,[],[],[],"[['D10', '13 05 07*', 1.92], ['D10', '16 07 08*', 0.954], ['D13', '13 05 07*', 8.86], ['D13', '16 07 08*', 6.76], ['R1 ', '15 02 02*', 0.2], ['R12', '05 01 03*', 12.5], ['R12', '15 02 02*', 3.0], ['R5 ', '13 05 07*', 18.0]]",[],./0.png
2.31969465849421,48.9452519208633,"6506329",Univar Solutions SAS,"5,62E+13",1 A 3 AV DE LA REDOUTE,"92390",VILLENEUVE-LA-GARENNE,"48.94525192086331","2.3196946584942144","2154.0",4675Z,Commerce de gros (commerce interentreprises) de produits chimiques,,,[],[],[],"[['D13', '14 06 03*', 6.02], ['D13', '16 03 03*', 0.226], ['D9 ', '06 02 04*', 0.938], ['D9 ', '16 03 05*', 0.02], ['R12', '16 03 05*', 6.18], ['R3 ', '16 07 08*', 7.64], ['R4 ', '15 01 10*', 1.82]]",[],./0.png
2.17891436417981,48.8912295158156,"7404706",RATP,"7,76E+13",166 BD NATIONAL,"92000",NANTERRE,"48.89122951581555","2.178914364179805","2154.0",4931Z,Transports urbains et suburbains de voyageurs,,,[],[],[],"[['D13', '16 01 21*', 4.45], ['D9 ', '19 08 10*', 4.75], ['R12', '19 02 05*', 2.34], ['R13', '08 01 11*', 0.243], ['R13', '12 01 16*', 0.279], ['R13', '12 01 16*', 0.259], ['R13', '13 02 05*', 3.06], ['R13', '13 07 01*', 0.175], ['R13', '15 01 10*', 0.258], ['R13', '15 02 02*', 1.72], ['R13', '15 02 02*', 1.05], ['R13', '16 01 21*', 0.155], ['R13', '16 01 21*', 3.1], ['R13', '16 01 21*', 0.185], ['R13', '16 02 13*', 0.05], ['R13', '16 05 04*', 0.21], ['R13', '20 01 21*', 0.366], ['R5 ', '19 02 05*', 28.8], ['R5 ', '19 08 10*', 8.4], ['R5 ', '19 08 10*', 16.3]]",[],./0.png
2.19107468828756,48.9029856505416,"7404580",RATP,"7,76E+13",31 RUE KLEBER,"92000",NANTERRE,"48.90298565054155","2.191074688287563","2154.0",4931Z,Transports urbains et suburbains de voyageurs,,,[],[],[],"[['D13', '12 03 01*', 3.52], ['D13', '12 03 01*', 0.36], ['D13', '16 05 04*', 0.955], ['D13', '16 05 04*', 0.03], ['R12', '15 01 10*', 0.084], ['R12', '15 02 02*', 0.509], ['R12', '16 01 07*', 0.276], ['R12', '16 05 04*', 0.046], ['R13', '15 01 10*', 0.238], ['R13', '15 01 10*', 0.076], ['R13', '15 02 02*', 0.509], ['R13', '15 02 02*', 0.12], ['R13', '16 01 07*', 1.04], ['R13', '16 01 14*', 2.1], ['R13', '16 02 13*', 0.398], ['R13', '16 06 01*', 2.5], ['R4 ', '16 06 01*', 5.97], ['R5 ', '13 05 07*', 2.5], ['R5 ', '19 02 05*', 52.5], ['R9 ', '13 02 05*', 3.06]]",[],./0.png
2.29448194587563,48.9480018746878,"6506289",TRAPIL,"5,72E+13",19 ROUTE DU BASSIN NÂ° 6,"92230",GENNEVILLIERS,"48.94800187468776","2.294481945875628","2154.0",4950Z,Transports par conduites,,,[],[],[],"[['R12', '15 02 02*', 6.5], ['R3 ', '16 07 08*', 14.4]]",[],./0.png
2.29007435496799,48.9478229764814,"6506287",SOCIETE DE GESTION DE PRODUITS PETROLIER (SOGEPP),"4,10E+13",27 RTE DU BASSIN NUMERO 6,"92230",GENNEVILLIERS,"48.94782297648136","2.290074354967992","2154.0",5210B,Entreposage et stockage non frigorifique,,,[],[],[],"[['D13', '16 10 01*', 1.16], ['R1 ', '13 05 02*', 12.5], ['R1 ', '13 05 07*', 33.1], ['R1 ', '15 02 02*', 0.583], ['R12', '13 05 02*', 31.0], ['R12', '13 05 07*', 1.0], ['R12', '16 10 01*', 27.8], ['R13', '16 01 14*', 1.98], ['R3 ', '16 07 08*', 1.45]]",[],./0.png
2.1839365258477,48.9014713168503,"6506314",CCMP,"5,76E+13",149 BD DU GENERAL LECLERC,"92000",NANTERRE,"48.90147131685027","2.183936525847703","2154.0",5210B,Entreposage et stockage non frigorifique,,,[],[],[],"[['D13', '15 02 02*', 1.61], ['R1 ', '15 02 02*', 0.36], ['R1 ', '16 07 08*', 8.72], ['R12', '15 01 10*', 0.258], ['R13', '16 06 01*', 0.445], ['R5 ', '13 05 07*', 16.4], ['R5 ', '16 07 08*', 1.42]]",[],./0.png
2.21143934200491,48.9202535185768,"6505483",M.A.J. Elis,"6,93E+13","14, rue Marcel Paul","95870",BEZONS,"48.92025351857685","2.2114393420049074","2154.0",7729Z,Location et location-bail d'autres biens personnels et domestiques,,,[],[],[],"[['D13', '18 01 03*', 130.0], ['D5 ', '13 05 02*', 5.05]]","[['D13', '18 01 03*', 20.5], ['D13', '18 01 03*', 3.7], ['D13', '18 01 03*', 8.7], ['D13', '18 01 03*', 29.0], ['D13', '18 01 03*', 6.3], ['D13', '18 01 03*', 33.0], ['D13', '18 01 03*', 28.8]]",./0.png
2.29790474096396,48.943255768386,"7402356",MAJ,"7,76E+13",10 ROUTE DES CHAMPS FOURGONS,"92230",GENNEVILLIERS,"48.943255768386","2.297904740963965","2154.0",7729Z,Location et location-bail d'autres biens personnels et domestiques,,,"[['Eau (indirect)', 'Demande biologique en oxygène (DBO5)', 67900.0, 'kg/an'], ['Eau (indirect)', 'Carbone organique total (en tant que C total ou DCO/3)', 51000.0, 'kg/an'], ['Eau (indirect)', 'Demande chimique en oxygène (DCO)', 165000.0, 'kg/an']]",[],[],"[['D13', '13 05 07*', 9.8]]",[],./0.png
2.22348625889711,48.9122023875983,"6506309",CASH (MAISON DE NANTERRE),"2,69E+13",403 AV DE LA REPUBLIQUE,"92000",NANTERRE,"48.912202387598334","2.223486258897108","27572.0",8810B,Accueil ou accompagnement sans hÃ©bergement d'adultes handicapÃ©s ou de personnes Ã¢gÃ©es,,,[],[],[],"[['D13', '12 01 09*', 6.48], ['R1 ', '13 05 08*', 0.5]]",[],./0.png
